license_numbers,premise_address,_id,name_of_license,business_name,latitude,longitude,postal_code
SSE20041N000,"184 EAST COAST ROAD, S(428890)",1,SUN RUI,Ever+,1.30676762440589,103.906559248475,428890
SSW19008P000,"18 SUNGEI KADUT STREET 2 SUNGEI KADUT INDUSTRIAL ESTATE, S(729236)",2,S POWER GLOBAL PTE. LTD.,S Power Supermart,1.41260803090908,103.747937640796,729236
SSW19009N000,"129 TUAS VIEW SQUARE, S(637741)",3,DHAKA SUPERMARKET,DHAKA SUPERMARKET,1.30117599336633,103.628177329762,637741
SSW19022V000,"50 JURONG GATEWAY ROAD JEM, S(608549)",4,PAN PACIFIC RETAIL MANAGEMENT (SINGAPORE) PTE. LTD.,DON DON DONKI,1.33320021829132,103.743170428258,608549
SW04097K000,"159 BUKIT BATOK STREET 11, #01-178, S(650159)",5,PRIME SUPERMARKET LIMITED,Prime supermarket,1.34857537953675,103.742708636413,650159
SW04158X000,"108 DEPOT ROAD, #01-01 DEPOT HEIGHTS SHOPPING CENTRE, S(100108)",6,NTUC FAIRPRICE CO-OPERATIVE LTD,NTUC FAIRPRICE,1.28112226852104,103.810031310636,100108
SW05008N000,"638 JURONG WEST STREET 61, #03-01 PIONEER MALL, S(640638)",7,COLD STORAGE SINGAPORE (1983) PTE LTD,GIANT,1.34159108725751,103.697020081587,640638
SW05051J000,"720 CLEMENTI WEST STREET 2, #01-144, S(120720)",8,SHENG SIONG SUPERMARKET PTE LTD,SHENG SIONG,1.30246408847832,103.763750972451,120720
SW06002X000,"19 TOH GUAN ROAD EAST, #01-65, S(608568)",9,TOH GUAN MINI MART PTE. LTD.,TOH GUAN MINIMART,1.3383123486952,103.753550358867,608568
SW06322N000,"395A BUKIT BATOK WEST AVENUE 5, #03-10 MULTI STOREY CAR PARK, S(651395)",10,OH BENG GUAN,-,1.36448974299463,103.751987145985,651395
SW06590A000,"1 HARBOURFRONT WALK, #01-23 VIVOCITY, S(098585)",11,NTUC FAIRPRICE CO-OPERATIVE LTD,FAIRPRICE XTRA,1.26389581240004,103.821589247996,098585
SW06806E000,"17 LORONG KILAT, #01-02 KILAT COURT, S(598139)",12,LOTTE MART PTE. LTD.,LOTTE KOREAN MART,1.34082662400309,103.774213253323,598139
SW07070J000,"284 BUKIT BATOK EAST AVENUE 3, #01-251, S(650284)",13,COLD STORAGE SINGAPORE (1983) PTE LTD,GIANT,1.34669905221409,103.757276700998,650284
SW07209E000,"7 JURONG WEST AVENUE 5, S(649486)",14,SHENG SIONG SUPERMARKET PTE LTD,SHENG SIONG,1.34878489718303,103.703415655017,649486
SW07331C000,"352 CLEMENTI AVENUE 2, #01-91&99, S(120352)",15,SHENG SIONG SUPERMARKET PTE LTD,SHENG SIONG,1.31427265951788,103.771360860916,120352
SW07481A000,"28 DOVER CRESCENT, #01-83 MULTI STOREY CAR PARK, S(130028)",16,NTUC FAIRPRICE CO-OPERATIVE LTD,NTUC FAIRPRICE,1.3047635676742,103.781697199348,130028
SW07E27X000,"30 PENJURU PLACE, #01-06/07, S(608557)",17,KINGSMART PTE. LTD.,kingsmart,1.31619770326353,103.732541771893,608557
SW08807K000,"154 WEST COAST ROAD #B1-19 WEST COAST PLAZA, S(127371)",18,COLD STORAGE SINGAPORE (1983) PTE LTD,coldstorage,1.30374258287197,103.766092882107,127371
SW08821N000,"140 TECK WHYE LANE, #01-351, S(680140)",19,NTUC FAIRPRICE CO-OPERATIVE LTD,NTUC FAIRPRICE,1.38001805825626,103.753148377762,680140
SW08907C000,"555 UPPER JURONG ROAD, #01-02, S(638368)",20,GOWRI'S GLOBAL MARKETING PTE. LTD.,GOWRI'S GLOBAL MARKETING,1.32885582536892,103.677162106135,638368
SW08A55C000,"51 SOON LEE ROAD, #01-51A, S(628088)",21,CHD @ SOON LEE PTE. LTD.,CHD @ SOON LEE,1.33201329508941,103.699073446012,628088
SW08A59X000,"63 JURONG WEST CENTRAL 3 #03-01 JURONG POINT SHOPPING CENTRE, S(648331)",22,NTUC FAIRPRICE CO-OPERATIVE LTD,NTUC FAIRPRICE,1.33931504032005,103.705350996191,648331
CE08H32N000,"80 LORONG LIMAU, #01-191, S(320080)",174,NTUC FAIRPRICE CO-OPERATIVE LTD,NTUC FAIRPRICE,1.32379607125113,103.855670620709,320080
SW09032C000,"21 CHOA CHU KANG NORTH 6, #B1-01-07 YEW TEE POINT, S(689578)",23,NTUC FAIRPRICE CO-OPERATIVE LTD,NTUC FAIRPRICE,1.39730190912669,103.746558067665,689578
SW09133X000,"503 JURONG WEST AVENUE 1, #01-847, S(640503)",24,LOCH GROCER PTE. LTD.,LOCH GROCER,1.34995541462242,103.71770480961,640503
SW09285K000,"61 CHOA CHU KANG DRIVE, #01-01 YEW TEE MRT STATION, S(689715)",25,NTUC FAIRPRICE CO-OPERATIVE LTD,FAIRPRICE FINEST,1.39729771118639,103.74735767326,689715
B02008E000,"845 YISHUN STREET 81, #01-184, S(760845)",26,SHENG SIONG SUPERMARKET PTE LTD,SHENG SIONG,1.4160188050375,103.835000766612,760845
B02011P000,"524A JELAPANG ROAD, #03-13/18 GREENRIDGE SHOPPING CENTRE, S(671524)",27,COLD STORAGE SINGAPORE (1983) PTE LTD,GIANT,1.38541768689995,103.766235457752,671524
B02012N000,"768 WOODLANDS AVENUE 6, #01-34 WOODLANDS MART, S(730768)",28,COLD STORAGE SINGAPORE (1983) PTE LTD,COLD STORAGE,1.44562289926402,103.798140996611,730768
B02015J000,"122 ANG MO KIO AVENUE 3, #01-1753, S(560122)",29,SHENG SIONG SUPERMARKET PTE LTD,SHENG SIONG,1.37018860668947,103.843413231524,560122
SW09288C000,"14 TECH PARK CRESCENT, #01-02, S(638118)",30,SADIA SUPERMARKET & TRADING (S) PTE. LTD.,SADIA SUPERMARKET & TRADING ,1.3106942813709,103.630190012756,638118
B02017C000,"301 WOODLANDS STREET 31, #01-217, S(730301)",31,SHENG SIONG SUPERMARKET PTE LTD,SHENG SIONG,1.4315052703273,103.773515659097,730301
SW09426V000,"2D JALAN PAPAN, #01-04, S(619415)",32,PHANG NEE ENTERPRISE PTE. LTD.,phang nee,1.32128074994759,103.729832580442,619415
B02020N000,"1 JELEBU ROAD, #01-15 BUKIT PANJANG PLAZA, S(677743)",33,NTUC FAIRPRICE CO-OPERATIVE LTD,NTUC FAIRPRICE,1.37991650665222,103.764317068535,677743
SW09752V000,"5 TECH PARK CRESCENT, #01-02, S(638127)",34,LAMIAH ENTERPRISE PTE. LTD.,-,1.31146788847722,103.630340020449,638127
B02021L000,"30 SEMBAWANG DRIVE, #B1-01-03 SUN PLAZA, S(757713)",35,NTUC FAIRPRICE CO-OPERATIVE LTD,NTUC FAIRPRICE,1.44822653818275,103.819462102812,757713
SW10780J000,"32 TUAS VIEW SQUARE, #01-02, S(637778)",36,SHARBESUWARY PTE. LTD.,SHARBESUWARY EXPRESS MART,1.29865806391236,103.62808808355,637778
B02022K000,"71 WOODLANDS AVENUE 3, #01-01 MARSILING MRT STATION, S(739044)",37,NTUC FAIRPRICE CO-OPERATIVE LTD,NTUC FAIRPRICE,1.43262603485889,103.774051197031,739044
SW10A16E000,"3155 COMMONWEALTH AVENUE WEST #B1-12/13/14 THE CLEMENTI MALL, S(129588)",38,NTUC FAIRPRICE CO-OPERATIVE LTD,FAIRPRICE FINEST,1.31555354277949,103.764596439304,129588
B02024E000,"888 WOODLANDS DRIVE 50, #01-757 888 PLAZA, S(730888)",39,NTUC FAIRPRICE CO-OPERATIVE LTD,NTUC FAIRPRICE,1.43713052444868,103.795289911954,730888
SW11146X000,"15 JALAN TEPONG, #03-02 (PART OF - LEFT SUB-UNIT), JURONG FOOD HUB, S(619336)",40,YS LOGISTICS (S) PTE. LTD.,YS LOGISTICS (S) ,1.30859345523909,103.722316829054,619336
B02025C000,"414 YISHUN RING ROAD, #01-1853, S(760414)",41,NTUC FAIRPRICE CO-OPERATIVE LTD,NTUC FAIRPRICE,1.42452849741737,103.846595546746,760414
SW11423N000,"18 TECK WHYE LANE, #01-95, S(680018)",42,SHENG SIONG SUPERMARKET PTE LTD,SHENG SIONG,1.37829768797221,103.754071398872,680018
B02026B000,"445 FAJAR ROAD, #01-536, S(670445)",43,COLD STORAGE SINGAPORE (1983) PTE LTD,COLD STORAGE,1.38358020252976,103.770774778244,670445
SW16735N000,"1 JALAN PAPAN, #01-31, S(619392)",622,GURU'S MARKETING PTE. LTD.,-,1.32087635946694,103.727545977964,619392
SW11452C000,"78A TELOK BLANGAH STREET 32, #01-01 MULTI STOREY CAR PARK, S(101078)",44,NTUC FAIRPRICE CO-OPERATIVE LTD,NTUC FAIRPRICE,1.27338751489362,103.808980553946,101078
SW11512N000,"23 PENJURU WALK, #03-81 CASSIA@PENJURU, S(608537)",46,KEK HONG HENG,KOLEE SUPERMARKETS,1.31800211513684,103.731982921138,608537
SW11A26P000,"460 ALEXANDRA ROAD #01-09 & #01-16 PSA BLDG, ALEXANDRA RETAIL CENTRE, S(119963)",48,NTUC FAIRPRICE CO-OPERATIVE LTD,NTUC FAIRPRICE,1.27369890868001,103.801277776077,119963
SW12C98J000,"2 JURONG EAST CENTRAL 1 JCUBE, S(609731)",50,PAN PACIFIC RETAIL MANAGEMENT (SINGAPORE) PTE. LTD.,DON DON DONKI,1.33323785085838,103.740191321438,609731
SW12F58E000,"352 CLEMENTI AVENUE 2, #01-141 CLEMENTI AVENUE 2 SHOPPING CENTRE, S(120352)",52,NTUC FAIRPRICE CO-OPERATIVE LTD,NTUC FAIRPRICE,1.31427265951788,103.771360860916,120352
SW12G70J000,"101 CLEMENTI ROAD, #01-01 KENT VALE ESTATE, NUS, S(129787)",54,COLD STORAGE SINGAPORE (1983) PTE LTD,COLD STORAGE,1.30176049506481,103.769371057337,129787
SW12G71E000,"1 COVE AVENUE #02-07/08/09/10 SENTOSA COVE ARRIVAL PLAZA, S(098537)",56,COLD STORAGE SINGAPORE (1983) PTE LTD,COLD STORAGE,1.2471504050601,103.839555011268,098537
SW12H20A000,"498 JURONG WEST STREET 41 #01-434/436/438, S(640498)",58,NTUC FAIRPRICE CO-OPERATIVE LTD,NTUC FAIRPRICE,1.34833335760515,103.724307319237,640498
SW12J94X000,"1 VISTA EXCHANGE GREEN, #B1-28 THE STAR VISTA, S(138617)",60,TANESEI TRADING PTE. LTD.,J MART,1.30688972960252,103.788506619352,138617
SW12J97L000,"1 VISTA EXCHANGE GREEN #B1-35/36 AND 02 THE STAR VISTA, S(138617)",62,COLD STORAGE SINGAPORE (1983) PTE LTD,COLD STORAGE,1.30688972960252,103.788506619352,138617
SW12L48X000,"12 KRANJI ROAD 1ST STOREY, LODGE 1 WORKERS' DORMITORY, S(739522)",64,AJMAL TRADE MART PTE. LTD.,AJMAL TRADE MART,1.43069359839388,103.759237290643,739522
SW12M64L000,"25 GHIM MOH LINK, #01-11, S(270025)",66,SHENG SIONG SUPERMARKET PTE LTD,SHENG SIONG,1.3081474688469,103.786255228477,270025
SW12M67E000,"420A CLEMENTI AVENUE 1, #01-01, S(121420)",68,SHENG SIONG SUPERMARKET PTE LTD,SHENG SIONG,1.30979102116855,103.768657661297,121420
SW12N25V000,"31 OCEAN WAY, #01-26/27 QUAYSIDE ISLE, SENTOSA, S(098375)",70,COLD STORAGE SINGAPORE (1983) PTE LTD,COLD STORAGE,1.24775861469621,103.841921088698,098375
SW12O05A000,"502 WEST COAST DRIVE, #01-41, S(120502)",72,NTUC FAIRPRICE CO-OPERATIVE LTD,NTUC FAIRPRICE,1.31188595916451,103.75908093731,120502
SW13245V000,"1 LOWER KENT RIDGE ROAD, #02-16 ONE@KENTRIDGE, S(119082)",73,NTUC FAIRPRICE CO-OPERATIVE LTD,NTUC FAIRPRICE,1.29277431990535,103.784084011452,119082
SW13368A000,"154 WEST COAST ROAD, #B1-14 WEST COAST PLAZA, S(127371)",74,L M MEAT PTE. LTD.,Mmmm ! WEST COAST PLAZA,1.30374258287197,103.766092882107,127371
SW13Q24X000,"280 BUKIT BATOK EAST AVENUE 3, #01-315, S(650280)",75,NTUC FAIRPRICE CO-OPERATIVE LTD,NTUC FAIRPRICE,1.34770147739311,103.757044584552,650280
SW13T12J000,"50 JURONG GATEWAY ROAD, #B1-21/22 JEM, S(608549)",76,NTUC FAIRPRICE CO-OPERATIVE LTD,FAIRPRICE XTRA,1.33320021829132,103.743170428258,608549
SW13W88P000,"3 GATEWAY DRIVE, #B2-01 WESTGATE, S(608532)",77,ISETAN (SINGAPORE) LIMITED,ISETAN SUPERMARKET,1.33428313049536,103.742870105512,608532
NW18021V000,"105 CANBERRA STREET, #02-05, S(750105)",419,SHENG SIONG SUPERMARKET PTE LTD,SHENG SIONG,1.44885888669751,103.832406209651,750105
B02032E000,"161 ANG MO KIO AVENUE 4, #01-504, S(560161)",45,COLD STORAGE SINGAPORE (1983) PTE LTD,GIANT,1.37416445374568,103.839549130658,560161
B02034B000,"30 WOODLANDS AVENUE 1 WOODGROVE, S(739065)",47,NTUC FAIRPRICE CO-OPERATIVE LTD,NTUC FAIRPRICE,1.42940278239402,103.781325393513,739065
B02035A000,"548 WOODLANDS DRIVE 44, #01-37/38 VISTA POINT, S(730548)",49,COLD STORAGE SINGAPORE (1983) PTE LTD,GIANT,1.43044361849124,103.793804884379,730548
B02037X000,"883 WOODLANDS STREET 82, #01-498 WOODLANDS NORTH PLAZA, S(730883)",51,COLD STORAGE SINGAPORE (1983) PTE LTD,GIANT,1.4428457006918,103.790825824274,730883
B02038P000,"925 YISHUN CENTRAL 1, #01-211, S(760925)",53,SHENG SIONG SUPERMARKET PTE LTD,SHENG SIONG,1.42823085122583,103.837450252524,760925
B02039N000,"293 YISHUN STREET 22, #01-261, S(760293)",55,COLD STORAGE SINGAPORE (1983) PTE LTD,COLD STORAGE,1.43611425409216,103.837605235958,760293
B02041C000,"327 YISHUN RING ROAD, #01-1320, S(760327)",57,TAN KWEE ENG,hwa soon heng mini supermarket,1.43007109914643,103.842396446526,760327
B02060V000,"256 BANGKIT ROAD, #01-69, S(670256)",59,COLD STORAGE SINGAPORE (1983) PTE LTD,COLD STORAGE,1.37904775583142,103.772937487128,670256
B02093B000,"301 YISHUN AVENUE 2, #01-02 YISHUN MRT STATION, S(769093)",61,NTUC FAIRPRICE CO-OPERATIVE LTD,NTUC FAIRPRICE,1.42951728655037,103.835058273602,769093
B02099L000,"849 YISHUN RING ROAD, #01-3703, S(760849)",63,NTUC FAIRPRICE CO-OPERATIVE LTD,NTUC FAIRPRICE,1.41696049844254,103.835347787187,760849
B03074A000,"44 JALAN MERAH SAGA, #01-50, S(278116)",65,THE BUTCHER (SINGAPORE) PTE. LTD.,The butcher,1.31192195425084,103.796844037126,278116
B03078N000,"34 GREENWOOD AVENUE, S(289236)",67,ROSWELL ENTERPRISE PTE LTD,Fish market,1.33183246511303,103.806492461663,289236
B03099C000,"628 SENJA ROAD, #01-01, S(670628)",69,NTUC FAIRPRICE CO-OPERATIVE LTD,NTUC FAIRPRICE,1.38509602416727,103.760218434373,670628
B85098V000,"239 YISHUN RING ROAD, #01-1150, S(760239)",71,HAO MART PTE. LTD.,HAO MART,1.43359514649201,103.839685373602,760239
B92077A000,"418 YISHUN AVENUE 11, #01-433, S(760418)",101,COLD STORAGE SINGAPORE (1983) PTE LTD,COLD STORAGE,1.4248993192219,103.847249789758,760418
B98014C000,"215 ANG MO KIO AVENUE 1, #01-877, S(560215)",102,NTUC FAIRPRICE CO-OPERATIVE LTD,NTUC FAIRPRICE,1.36648772103091,103.841853392645,560215
B99041L000,"1 ORCHID CLUB ROAD, #01-34 ORCHID COUNTRY CLUB, S(769162)",103,NTUC FAIRPRICE CO-OPERATIVE LTD,NTUC FAIRPRICE,1.41110357649475,103.844214479132,769162
C00033N000,"615 615 Bukit Timah Road, S(269716)",104,MEAT THE BUTCHER PTE. LTD.,Meat The Butcher,1.32437354224724,103.80935784628,269716
C02024A000,"1 FIFTH AVENUE, #01-05 GUTHRIE HOUSE, S(268802)",105,COLD STORAGE SINGAPORE (1983) PTE LTD,COLD STORAGE,1.33087386606319,103.795700329256,268802
C02025V000,"293 HOLLAND ROAD COLD STORAGE JELITA, S(278628)",106,COLD STORAGE SINGAPORE (1983) PTE LTD,COLD STORAGE,1.31756196675604,103.7858406179,278628
C02026X000,"2 JURONG EAST STREET 21, #01-100 IMM BUILDING, S(609601)",107,COLD STORAGE SINGAPORE (1983) PTE LTD,GIANT,1.3346666186285,103.74695659203,609601
C02033V000,"154A BUKIT BATOK WEST AVENUE 8, #01-01, S(651154)",108,SHENG SIONG SUPERMARKET PTE LTD,SHENG SIONG,1.34737180152613,103.743698106143,651154
CE09512V000,"512 BISHAN STREET 13, #01-524, S(570512)",175,COLD STORAGE SINGAPORE (1983) PTE LTD,GIANT,1.34962234975345,103.849881702733,570512
SW14017K000,"18 TOH GUAN ROAD EAST, #02-02 BLK 28, WESTLITE DORMITORY (TOH GUAN), S(608596)",78,SHAFEN SUPERMARKET & TRADING (S) PTE. LTD.,SHAFEN SUPERMARKET & TRADING ,1.33641798183711,103.751807381961,608596
SW14484J000,"48 TOH GUAN ROAD EAST ENTERPRISE HUB, S(608586)",79,SRI MURUGAN TRADING PTE. LTD.,SRI MURUGAN TRADING,1.33683097525786,103.754341430783,608586
SW14542A000,"4 HILLVIEW RISE, #02-07 HILLV2, S(667979)",80,COLD STORAGE SINGAPORE (1983) PTE LTD,HILLVIEW MARKET PLACE,1.36355095770679,103.76423610633,667979
SW14633X000,"2 BUKIT BATOK WEST AVENUE 7, #01-10 HomeTeamNS BUKIT BATOK CLUBHOUSE, S(659003)",81,NTUC FAIRPRICE CO-OPERATIVE LTD,NTUC FAIRPRICE,1.36587481730827,103.750225305199,659003
SW14718K000,"70 TUAS SOUTH AVENUE 1 TUAS VIEW DORMITORY, S(637285)",82,AJMAL SUPER MART PTE. LTD.,AJMAL SUPER MART,1.312703972078,103.626129413176,637285
SW14817E000,"27 PENJURU WALK, #01-24 PENJURU RECREATION CENTRE, S(608538)",83,SHENG SIONG SUPERMARKET PTE LTD,SHENG SIONG,1.31865728379443,103.733152140767,608538
SW14951X000,"1 JOO KOON CIRCLE, #03-21 FAIRPRICE HUB, S(629117)",84,NTUC FAIRPRICE CO-OPERATIVE LTD,WAREHOUSE CLUB,1.32539180665075,103.678392265337,629117
SW14A33P000,"27 PENJURU WALK, #01-08/09 PENJURU RECREATION CENTRE, S(608538)",85,VINAYAK TRADERS PTE. LTD.,VINAYAK TRADERS,1.31865728379443,103.733152140767,608538
SW14A98C000,"27 PENJURU WALK, #01-15 PENJURU RECREATION CENTRE, S(608538)",86,GURU'S MARKETING PTE. LTD.,Gurus Supermarket,1.31865728379443,103.733152140767,608538
SW14B28C000,"115 TUAS VIEW WALK 1 (PART OF- FRONT), FIRST STOREY, WESTLINK TECHPARK, S(637734)",87,SHINVA AGRO FOODS PTE. LTD.,SHINVA AGRO FOODS,1.30091123508276,103.627789990003,637734
SW15051V000,"27 PENJURU WALK, #01-06/07 PENJURU RECREATION CENTRE, S(608538)",88,ARCHANA PROVISION STORES PTE. LTD.,archana,1.31865728379443,103.733152140767,608538
SW15681P000,"21 TUAS VIEW SQUARE (PART OF), S(637640)",89,NPS IMPEX PTE. LTD.,NSP SUPER MART,1.29891712474996,103.627532390173,637640
SW15796X000,"533 CHOA CHU KANG STREET 51, #01-11 LIMBANG SHOPPING CENTRE (HDB), S(680533)",90,NTUC FAIRPRICE CO-OPERATIVE LTD,NTUC FAIRPRICE,1.3920738867617,103.743099573442,680533
SW15968N000,"37 TEBAN GARDENS ROAD #01-304/305/306, S(600037)",91,NTUC FAIRPRICE CO-OPERATIVE LTD,NTUC FAIRPRICE,1.32053143645806,103.742652199249,600037
SW15D03B000,"50 NANYANG AVENUE NORTH SPINE , NTU, S(639798)",92,PRIME SUPERMARKET (1996) PTE LTD,Prime Supermarket,1.34421841586272,103.680152218583,639798
SW16126J000,"6 TUAS SOUTH STREET 15 CDPL (TUAS) DORMITORY, S(636906)",93,TUAS SOUTH MINIMART PTE. LTD.,TUAS SOUTH MINIMART,1.2723601780185,103.637033572628,636906
SW16224E000,"3 TUAS SOUTH STREET 12, #01-16 TUAS SOUTH DORMITORY, S(636947)",94,NAWAS GLOBAL PTE. LTD.,NAWAS GLOBAL,1.27164521611331,103.63361127365,636947
SW16735N000,"1 JALAN PAPAN, #01-31, S(619392)",95,GURU'S MARKETING PTE. LTD.,-,1.32087635946694,103.727545977964,619392
SW16814X000,"1 JALAN PAPAN, #01-33, S(619392)",96,VINAYAK TRADERS PTE. LTD.,VINAYAK TRADERS,1.32087635946694,103.727545977964,619392
SW16815P000,"500 OLD CHOA CHU KANG ROAD, #01-02, S(698928)",97,PHAN NEE INVESTMENTS (S) PTE. LTD.,-,1.37376143663764,103.721557394479,698928
SW16856V000,"1 JALAN PAPAN, #01-29, S(619392)",98,ARCHANA SUPERMARKET PTE. LTD.,ARCHANA SUPERMARKET,1.32087635946694,103.727545977964,619392
CE15F60K000,"22 DEMPSEY ROAD 1st & 2nd storey, S(249679)",242,HUBER'S PTE. LTD.,HUBER'S,1.30679240314535,103.810185814417,249679
SW16901A000,"12 TUAS SOUTH STREET 13, #01-20/21, S(636937)",99,SADIA SUPERMARKET & TRADING (S) PTE. LTD.,SADIA SUPERMARKET & TRADING ,1.27019585421212,103.634479625194,636937
SW16921N000,"1 JALAN PAPAN, #01-35, S(619392)",100,CHENNAI TRADING & SUPERMART PTE. LTD.,CHENNAI TRADING & SUPERMARKET,1.32087635946694,103.727545977964,619392
C02034X000,"587 BUKIT TIMAH ROAD CORONATION PLAZA, S(269707)",109,NTUC FAIRPRICE CO-OPERATIVE LTD,NTUC FAIRPRICE,1.32367550486167,103.810234388173,269707
C02035P000,"451 CLEMENTI AVENUE 3, #01-307, S(120451)",110,NTUC FAIRPRICE CO-OPERATIVE LTD,NTUC FAIRPRICE,1.31248109025097,103.765476495005,120451
C02036N000,"1 JALAN ANAK BUKIT, #B1-01 BUKIT TIMAH PLAZA, S(588996)",111,NTUC FAIRPRICE CO-OPERATIVE LTD,FINEST,1.33865677622928,103.778560467143,588996
C02037L000,"135 JURONG EAST STREET 13, #01-337, S(600135)",112,NTUC FAIRPRICE CO-OPERATIVE LTD,NTUC FAIRPRICE,1.333825407445,103.739676885744,600135
C02038K000,"1 JURONG WEST CENTRAL 2, #B1-09 JURONG POINT, S(648886)",113,NTUC FAIRPRICE CO-OPERATIVE LTD,NTUC FAIRPRICE,1.3394520043632,103.706685012926,648886
C02040A000,"63/66 YUNG KUANG ROAD #01-119/02-119, S(610063)",114,NTUC FAIRPRICE CO-OPERATIVE LTD,NTUC FAIRPRICE,1.33221398206902,103.722691571538,610063
C02041V000,"399 YUNG SHENG ROAD #01-43A & 01-35, S(610399)",115,NTUC FAIRPRICE CO-OPERATIVE LTD,NTUC FAIRPRICE,1.3350420286067,103.72026802061,610399
C02046K000,"1 BUKIT BATOK CENTRAL LINK, #B1-01 WEST MALL, S(658713)",116,COLD STORAGE SINGAPORE (1983) PTE LTD,COLD STORAGE,1.35018916560505,103.749021976618,658713
C02047J000,"345 CLEMENTI AVENUE 5, #01-78, S(120345)",117,U STARS SUPERMARKET PTE. LTD.,U STARS SUPERMARKET,1.31770281154049,103.769076731999,120345
C02048E000,"144 UPPER BUKIT TIMAH ROAD, #B1-01 BEAUTY WORLD CENTRE, S(588177)",118,COLD STORAGE SINGAPORE (1983) PTE LTD,COLD STORAGE,1.34241264188643,103.776539385678,588177
C02050X000,"3 YUAN CHING ROAD, #01 #01-01A/02, S(618642)",119,SHENG SIONG SUPERMARKET PTE LTD,SHENG SIONG,1.32547408835086,103.725247683743,618642
C02052N000,"5 RIDGEWOOD CLOSE RIDGEWOOD CONDOMINIUM, S(276696)",120,YEO KENG GUAN,ridgewood gourmet,1.3166189803866,103.77894725541,276696
C02053L000,"166 BUKIT BATOK WEST AVENUE 8 #01-256/258, S(650166)",121,NTUC FAIRPRICE CO-OPERATIVE LTD,NTUC FAIRPRICE,1.34715255032968,103.742824825591,650166
C02080E000,"61 TEBAN GARDENS ROAD, #01-21, S(600061)",122,SHENG SIONG SUPERMARKET PTE LTD,SHENG SIONG,1.3223749703177,103.738412755847,600061
C02104B000,"10 BUKIT BATOK CENTRAL, #01-08, S(659958)",123,NTUC FAIRPRICE CO-OPERATIVE LTD,NTUC FAIRPRICE,1.34903331201636,103.749566478309,659958
C03010C000,"1 MARITIME SQUARE #01-47/48/49/50 HARBOURFRONT CENTRE, S(099253)",124,COLD STORAGE SINGAPORE (1983) PTE LTD,COLD STORAGE,1.26379682885331,103.820219045593,099253
C79031J000,"21 GHIM MOH ROAD, #01-177, S(270021)",125,COLD STORAGE SINGAPORE (1983) PTE LTD,GIANT,1.31010302594118,103.788545950724,270021
SW16942C000,"12 TUAS SOUTH STREET 13, #01-18/19, S(636937)",126,POPULAR SUPERMARKET PTE. LTD.,POPULAR SUPERMARKET,1.27019585421212,103.634479625194,636937
SW16B52K000,"5 JALAN PAPAN, #01-32 ASPRI-WESTLITE PAPAN, S(619396)",127,AJMAL  TRADING GROUP PTE. LTD.,AJMAL TRADING GROUP,1.32213826794398,103.727421300389,619396
SW16B85N000,"69R TUAS SOUTH AVENUE 1, #01-02, S(639926)",128,KAVI TRADERS PTE. LTD.,KAVI MINIMART,1.31337258753746,103.6279253363,639926
SW16D52V000,"810 CHOA CHU KANG AVENUE 7, #01-01 MULTI STOREY CAR PARK, S(680810)",129,U STARS PTE. LTD.,U STARS SUPERMARKET,1.3740546176425,103.746160942106,680810
SW16D83E000,"249 JURONG EAST STREET 24, #01-106, S(600249)",130,NTUC FAIRPRICE CO-OPERATIVE LTD,NTUC FAIRPRICE,1.34256242291848,103.739259690369,600249
SW16E98J000,"500 OLD CHOA CHU KANG ROAD, #01-21, S(698924)",131,PHAN NEE INVESTMENTS (S) PTE LTD,PHANNEE SUPERMART,1.37760471899348,103.718533645365,698924
SW16H70N000,"69 TUAS SOUTH AVENUE 1, #01-02 SEATOWN INDUSTRIAL CENTRE, S(637589)",132,MALAR MARKETING PTE. LTD.,MALAR MARKETING,1.31335809026255,103.627436989653,637589
SW17592A000,"50 JURONG GATEWAY ROAD, #B1-43 JEM, S(608549)",133,SONG FISH DEALER PTE LTD,THE SEAFOOD MARKET PLACE BY SONG FISH,1.33320021829132,103.743170428258,608549
SW17728C000,"817 KEAT HONG LINK, #01-14 MULTI STOREY CAR PARK, S(680817)",134,U STARS PTE. LTD.,U STARS MEGAMART,1.37754385007462,103.749700036701,680817
SW17E56V000,"1 FUSIONOPOLIS WAY, #B2-03 CONNEXIS, S(138632)",135,COLD STORAGE SINGAPORE (1983) PTE LTD,COLD STORAGE,1.29951528532019,103.787639846851,138632
SW18581V000,"180 DEPOT ROAD, #01-04 INTERLACE, THE, S(109684)",136,THE QUALITYMART DEPOT PTE. LTD.,THE QUALITYMART DEPOT,1.28198401796351,103.803052971713,109684
SW18715E000,"13 YUK TONG AVENUE CHUN TIN COURT, S(596318)",137,SEOUL BUTCHERY PTE. LTD.,SEOUL BUTCHERY,1.34207496392367,103.774632794309,596318
SW18A30L000,"440 BUKIT BATOK WEST AVENUE 8, #01-10 MULTI STOREY CAR PARK, S(650440)",138,SHENG SIONG SUPERMARKET PTE LTD,SHENG SIONG,1.35572308109486,103.739303105372,650440
SW18A40J000,"35 STUDENTS WALK NTU CANTEEN 2, S(639548)",139,COLD STORAGE SINGAPORE (1983) PTE LTD,GIANT EXPRESS,1.34842266576961,103.685434201207,639548
SW18B79P000,"9 TRACTOR ROAD, S(627970)",140,MURUGAN TRADERS PTE LTD,-,1.32447647411575,103.705852113344,627970
SW18F69X000,"451 BUKIT BATOK WEST AVENUE 6, #01-10 MULTI STOREY CAR PARK, S(650451)",141,SHENG SIONG SUPERMARKET PTE LTD,SHENG SIONG,1.35303824882883,103.743948447541,650451
SW18G66X000,"34 BOON LEAT TERRACE (PART OF), S(119866)",142,HONESTBEE PTE. LTD.,HABITAT BY HONESTBEE,1.27604518583221,103.797187337697,119866
SW19707V000,"14 TUAS AVENUE 1, #01-01 JTC SPACE @ TUAS, S(639499)",143,BALU SUPER MARKET PTE. LTD.,BALU SUPERMARKET,1.32156874356655,103.660993360337,639499
SW19869J000,"292 BUKIT BATOK EAST AVENUE 6, #01-02 MULTI STOREY CAR PARK, S(650292)",144,SHENG SIONG SUPERMARKET PTE LTD,SHENG SIONG,1.34449810500079,103.755375174334,650292
SW19934B000,"1 HARBOURFRONT WALK, #B2-23A VIVO CITY, S(098585)",145,SONG FISH DEALER PTE LTD,THE SEAFOOD MARKET PLACE BY SONG FISH,1.26389581240004,103.821589247996,098585
SW19A15B000,"8 TECH PARK CRESCENT, #01-00, S(638124)",146,NIHI PTE. LTD.,NIHI MINI MART,1.31097333406367,103.629405094456,638124
SW19G50C000,"40 TUAS VIEW SQUARE, #01-03 LANDBASE INDUSTRIAL BUILDING, S(637779)",147,LAMIAH ENTERPRISE PTE. LTD.,LAMIAH MINIMART,1.3004756660875,103.628812048159,637779
W02065N000,"101 THOMSON ROAD, #B1-52 UNITED SQUARE, S(307591)",148,COLD STORAGE SINGAPORE (1983) PTE LTD,COLD STORAGE,1.31717838140911,103.843773665257,307591
W02066L000,"211 HOLLAND AVENUE, #01-05 HOLLAND ROAD SHOPPING CENTRE, S(278967)",149,COLD STORAGE SINGAPORE (1983) PTE LTD,COLD STORAGE,1.31025541884853,103.795350439947,278967
W02068J000,"1 KIM SENG PROMENADE, #B1-18/19 GREAT WORLD CITY, S(237994)",150,COLD STORAGE SINGAPORE (1983) PTE LTD,COLD STORAGE,1.2931549290701,103.831928020443,237994
C85274C000,"BLK 345 JURONG EAST STREET 31, #01-29, S(600345)",151,NTUC FAIRPRICE CO-OPERATIVE LTD,NTUC FAIRPRICE,1.34551210586754,103.731219146294,600345
C99107C000,"1 JURONG WEST CENTRAL 2, #B1-26 JURONG POINT SHOPPING CENTRE, S(648886)",152,SONG FISH DEALER PTE LTD,The Seafood Market Place by Song Fish,1.3394520043632,103.706685012926,648886
CE04086K000,"57 DAWSON ROAD, #01-01 DAWSON PLACE, S(142057)",153,NTUC FAIRPRICE CO-OPERATIVE LTD,NTUC FAIRPRICE,1.29270252655148,103.810971835374,142057
CE04334P000,"233 ANG MO KIO AVENUE 3, #01-1168, S(560233)",154,SHENG SIONG SUPERMARKET PTE LTD,SHENG SIONG,1.36754924977907,103.836740628478,560233
CE04558K000,"108 MCNAIR ROAD, #01-295, S(321108)",155,SHENG SIONG SUPERMARKET PTE LTD,SHENG SIONG,1.3216190383169,103.859382719506,321108
CE04561V000,"19 SERANGOON NORTH AVENUE 5, #01-01/02, S(554913)",156,SHENG SIONG SUPERMARKET PTE LTD,SHENG SIONG,1.37563500157221,103.871996419103,554913
CE05039P000,"201 YISHUN AVENUE 2, #01-03 KHATIB MRT STATION, S(769092)",157,COLD STORAGE SINGAPORE (1983) PTE LTD,COLD STORAGE,1.41758906054002,103.833061043125,769092
CE05096V000,"316B ANG MO KIO STREET 31, #01-11 MULTI STOREY CAR PARK, S(563316)",158,COLD STORAGE SINGAPORE (1983) PTE LTD,GIANT,1.36462540270464,103.847677034369,563316
CE05295K000,"71 KALLANG BAHRU, #02-531, S(330071)",159,NTUC FAIRPRICE CO-OPERATIVE LTD,NTUC FAIRPRICE,1.3209929422065,103.870389998344,330071
CE05380X000,"491 RIVER VALLEY ROAD, #01-20, S(248371)",160,LITTLE FARMS PTE. LTD.,LITTLE FARMS,1.2930360423149,103.827124966831,248371
CE05487V000,"1 JALAN BUKIT MERAH, #01-4500, S(150001)",161,NTUC FAIRPRICE CO-OPERATIVE LTD,NTUC FAIRPRICE,1.28645354030174,103.808242400418,150001
CE06044N000,"491 RIVER VALLEY ROAD, #01-14 VALLEY POINT, S(248371)",162,NTUC FAIRPRICE CO-OPERATIVE LTD,NTUC FAIRPRICE,1.2930360423149,103.827124966831,248371
CE06464C000,"501 BUKIT TIMAH ROAD, #01-02 CLUNY COURT, S(259760)",163,COLD STORAGE SINGAPORE (1983) PTE LTD,COLD STORAGE,1.32257316934913,103.814245542255,259760
CE06L48L000,"10 SINARAN DRIVE, #04-47/48 SQUARE 2, S(307506)",164,NTUC FAIRPRICE CO-OPERATIVE LTD,NTUC FAIRPRICE,1.32061258625866,103.844331494859,307506
CE06M36N000,"53 ANG MO KIO AVENUE 3, #B2-40, S(569933)",165,NTUC FAIRPRICE CO-OPERATIVE LTD,FAIRPRICE XTRA,1.36922321403001,103.848467911464,569933
CE07320C000,"43 CAMBRIDGE ROAD, #01-15, S(210043)",166,NTUC FAIRPRICE CO-OPERATIVE LTD,NTUC FAIRPRICE,1.31536302699791,103.849434501824,210043
CE07705A000,"30 GREENWOOD AVENUE HILLCREST PARK, S(289230)",167,SWISS BUTCHERY (2013) PRIVATE LIMITED,SWISS BUTCHERY,1.33176092057825,103.806586709072,289230
CE07783P000,"88 TANGLIN HALT ROAD, #01-10 MULTI STOREY CAR PARK, S(141088)",168,SHENG SIONG SUPERMARKET PTE LTD,SHENG SIONG,1.301864727407,103.798174301286,141088
CE07B77K000,"370 ALEXANDRA ROAD, #B1-58 ANCHORPOINT, S(159953)",169,FISHOP PTE. LTD.,FISHOP,1.28901158945676,103.805330963707,159953
CE07D83B000,"5 UPPER BOON KENG ROAD, #01-05 MULTI STOREY CAR PARK, S(380005)",170,NTUC FAIRPRICE CO-OPERATIVE LTD,NTUC FAIRPRICE,1.31265449628072,103.872541799007,380005
CE07T39B000,"10 SINARAN DRIVE, #04-55 SQUARE 2, S(307506)",171,L M MEAT PTE. LTD.,Mmmm!,1.32061258625866,103.844331494859,307506
CE08015J000,"18 /20 KIM TIAN ROAD KAI FOOK MANSION, S(169252)",172,NTUC FAIRPRICE CO-OPERATIVE LTD,NTUC FAIRPRICE,1.28481163867942,103.829306826998,169252
CE08808B000,"56 TANGLIN ROAD, #01-02, S(247964)",173,SWISS BUTCHERY PTE LTD,swiss butchery,1.30564366948369,103.822979236558,247964
W02070V000,"290 ORCHARD ROAD, #B1-14/15 THE PARAGON, S(238859)",176,COLD STORAGE SINGAPORE (1983) PTE LTD,COLD STORAGE,1.30371084737898,103.83526664484,238859
W02071X000,"391A ORCHARD ROAD, #B2-01 NGEE ANN CITY TOWER A, S(238873)",177,COLD STORAGE SINGAPORE (1983) PTE LTD,COLD STORAGE,1.30242417189411,103.834676124723,238873
W02072P000,"302 TIONG BAHRU ROAD, #B1-01 TIONG BAHRU PLAZA, S(168732)",178,NTUC FAIRPRICE CO-OPERATIVE LTD,NTUC FAIRPRICE,1.28647119992725,103.827158267789,168732
W02073N000,"163 TANGLIN ROAD, #B1-02/03 TANGLIN MALL, S(247933)",179,COLD STORAGE SINGAPORE (1983) PTE LTD,COLD STORAGE,1.30485342129478,103.823883490852,247933
W02074L000,"238 THOMSON ROAD, #01-29 NOVENA SQUARE, S(307683)",180,COLD STORAGE SINGAPORE (1983) PTE LTD,COLD STORAGE,1.31983049912881,103.843976528625,307683
W02075K000,"230 VICTORIA STREET, #B1-16 BUGIS JUNCTION, S(188024)",181,COLD STORAGE SINGAPORE (1983) PTE LTD,COLD STORAGE,1.30011789343093,103.856191571652,188024
W02076J000,"5 BANDA STREET, #03-92, S(050005)",182,HONG HENG SENG,fish supplier,1.28119737026913,103.843437320613,050005
W02078C000,"350 ORCHARD ROAD, #B1-00 SHAW HOUSE, S(238868)",183,ISETAN (SINGAPORE) LIMITED,ISETAN SUPERMARKET,1.30573060708011,103.831531920982,238868
W02080P000,"252 NORTH BRIDGE ROAD, #B1-01 RAFFLES CITY SHOPPING CENTRE, S(179103)",184,COLD STORAGE SINGAPORE (1983) PTE LTD,Market Place,1.29407644483073,103.853331827088,179103
W02081N000,"5001 BEACH ROAD, #02-64 GOLDEN MILE COMPLEX, S(199588)",185,LOH NYEN YIU,thai supermarket,1.30285776289789,103.865284424819,199588
W02083K000,"166 BUKIT MERAH CENTRAL, #01-3527 02-3531 BUKIT MERAH AREA OFFICE, S(150166)",186,NTUC FAIRPRICE CO-OPERATIVE LTD,NTUC FAIRPRICE,1.28309262574973,103.817667202598,150166
W02086C000,"50 HAVELOCK ROAD, #01-755, S(160050)",187,NTUC FAIRPRICE CO-OPERATIVE LTD,NTUC FAIRPRICE,1.28977813992267,103.826793758887,160050
W02088A000,"68 ORCHARD ROAD, #B2-15/16 PLAZA SINGAPURA, S(238839)",188,COLD STORAGE SINGAPORE (1983) PTE LTD,COLD STORAGE,1.30082071769235,103.845067272666,238839
W02092J000,"5 TANJONG PAGAR PLAZA, #01-01, S(081005)",189,NTUC FAIRPRICE CO-OPERATIVE LTD,NTUC FAIRPRICE,1.27624052001347,103.843006115698,081005
W02096A000,"81 CLEMENCEAU AVENUE, #02-18, S(239917)",190,COLD STORAGE SINGAPORE (1983) PTE LTD,COLD STORAGE,1.2921646613958,103.842601482192,239917
W02100V000,"109 BUKIT PURMEI ROAD, #01-155, S(090109)",191,NG CHAI SENG,-,1.27392939929265,103.825310761145,090109
W02140C000,"200 TURF CLUB ROAD THE GRANDSTAND, S(287994)",192,HAO MART PTE. LTD.,HAO MART,1.33879673523931,103.793256122847,287994
W02239E000,"131 KILLINEY ROAD, #01-01,02 ORCHARD GRAND COURT, S(239571)",193,NTUC FAIRPRICE CO-OPERATIVE LTD,NTUC FAIRPRICE,1.29727531417916,103.838533924757,239571
W02332N000,"52 CHIN SWEE ROAD, #01-25, S(160052)",194,SHENG SIONG SUPERMARKET PTE LTD,SHENG SIONG,1.28708278284998,103.841580109275,160052
W02430L000,"501 BUKIT TIMAH ROAD, #01-05B (PART OF) CLUNY COURT, S(259760)",195,THE FISHWIVES PTE. LTD.,THE FISHWIVES,1.32257316934913,103.814245542255,259760
W03142N000,"147 SYED ALWI ROAD, S(207706)",196,MUSTAFA HOLDINGS PTE LTD,Mustafa Singapore,1.30975299910627,103.855701473372,207706
W03223N000,"780 YISHUN RING ROAD, #01-3546, S(760780)",197,KAI SOON SUPERMARKET PTE. LTD.,KAI SOON SUPERMARKET,1.42213865295029,103.832882657874,760780
W70029L000,"170 STIRLING ROAD, #01-1147, S(140170)",198,NTUC FAIRPRICE CO-OPERATIVE LTD,NTUC FAIRPRICE,1.29090918077067,103.803107626115,140170
W72014K000,"86 REDHILL CLOSE, #01-610, S(150086)",199,COLD STORAGE SINGAPORE (1983) PTE LTD,GIANT,1.2869200622963,103.818673592235,150086
W74072X000,"8 TELOK BLANGAH CRESCENT, #01-171, S(090008)",200,COLD STORAGE SINGAPORE (1983) PTE LTD,GIANT,1.27779539068994,103.819341303524,090008
W89166E000,"176 ORCHARD ROAD, #B1-09/11 CENTREPOINT SHOPPING COMPLEX, S(238843)",201,COLD STORAGE SINGAPORE (1983) PTE LTD,COLD STORAGE,1.30151446722773,103.840054426935,238843
W90084A000,"133 NEW BRIDGE ROAD, #B1-01 CHINATOWN POINT, S(059413)",202,NTUC FAIRPRICE CO-OPERATIVE LTD,NTUC FAIRPRICE,1.28533894878838,103.845015574621,059413
CE09685B000,"20 GREENWOOD AVENUE HILLCREST PARK, S(289215)",203,COLD STORAGE SINGAPORE (1983) PTE LTD,COLD STORAGE,1.33149129253859,103.806809027748,289215
CE09744N000,"5 ALJUNIED ROAD, S(389797)",204,YEO HOCK HENG,-,1.31357604994103,103.881877795334,389797
CE09874X000,"2 MARINA BOULEVARD, #B1-05 SAIL @ MARINA BAY, THE, S(018987)",205,AL MARCHE PTE. LTD.,MINI MART,1.28076943476846,103.852658562152,018987
CE09902A000,"7 GREENDALE AVENUE GREENDALE COURT, S(289504)",206,NG LIAN TEE,NG LIAN TEE,1.33166476661284,103.807033788637,289504
CE09H10X000,"180 KITCHENER ROAD, #B1-09/10 CITY SQUARE MALL, S(208539)",207,NTUC FAIRPRICE CO-OPERATIVE LTD,NTUC FAIRPRICE,1.31147744952234,103.856780762986,208539
CE10085L000,"230 GEYLANG ROAD #B1-01 & #01-01, S(389290)",208,PRB TRADING PTE. LTD.,PRB TRADING,1.31208817725995,103.877388748956,389290
CE10B87J000,"383 BUKIT TIMAH ROAD, #01-09A ALOCASSIA APARTMENTS, S(259727)",209,COLD STORAGE SINGAPORE (1983) PTE LTD,COLD STORAGE,1.31946441191454,103.827297599465,259727
CE10I13B000,"225 OUTRAM ROAD, S(169038)",210,FOODIE MARKET PLACE PTE. LTD.,FOODIE MARKET PLACE,1.2834507756763,103.835371238027,169038
CE11B47P000,"32 LORONG 11 GEYLANG, S(388724)",211,HAO MART PTE. LTD.,HAO MART,1.31346903148114,103.877004748853,388724
CE11C49E000,"26 JALAN MEMBINA, #01-07, S(161026)",212,COLD STORAGE SINGAPORE (1983) PTE LTD,GIANT,1.28263437649669,103.825595753657,161026
CE11F41C000,"150 SILAT AVENUE, #01-44, S(160150)",213,NTUC FAIRPRICE CO-OPERATIVE LTD,FAIRPRICE SHOP,1.27707706824333,103.831425856916,160150
CE11H82X000,"24 WATERLOO STREET, #02-01 JEWISH SYNAGOGUE, S(187950)",214,"Jewish Welfare Board, Singapore, The",KOSHER SHOP,1.2982732827961,103.850599503474,187950
CE11M39P000,"6 SCOTTS ROAD #B1-03/07 & #B1-10 SCOTTS SQUARE, S(228209)",215,NTUC FAIRPRICE CO-OPERATIVE LTD,NTUC FAIRPRICE,1.30587085289598,103.83312044675,228209
CE11N90C000,"712 ANG MO KIO AVENUE 6, #01-4056, S(560712)",216,NTUC FAIRPRICE CO-OPERATIVE LTD,NTUC FAIRPRICE,1.3714109677026,103.847084468485,560712
CE11P32L000,"1 SELETAR ROAD, #01-11 GREENWICH, THE, S(807011)",217,COLD STORAGE SINGAPORE (1983) PTE LTD,COLD STORAGE,1.38760330190633,103.869423629864,807011
CE12096L000,"1 JALAN BERSEH, #B1-03/22 NEW WORLD CENTRE, S(209037)",218,SHENG SIONG SUPERMARKET PTE LTD,SHENG SIONG,1.30778509510261,103.857010982845,209037
CE12546B000,"301 GEYLANG ROAD #01-02, #02-01/02/03/04/05 BCH@301, S(389344)",219,SHENG SIONG SUPERMARKET PTE LTD,SHENG SIONG,1.31272401096588,103.878705403249,389344
CE12695A000,"74 WHAMPOA DRIVE, #01-332, S(320074)",220,HAO MART PTE. LTD.,HAO MART,1.32471579654689,103.857752875203,320074
CE12H50C000,"100 TRAS STREET, #B1-01 100 AM, S(079027)",221,NTUC FAIRPRICE CO-OPERATIVE LTD,FAIRPRICE FINEST,1.27458821795426,103.84347073661,079027
CE12H94B000,"542B SERANGOON NORTH AVENUE 3, #02-01 MUTLI STOREY CAR PARK, S(552542)",222,PRIME SUPERMARKET (1996) PTE LTD,PRIME SUPERMARKET,1.37368393003779,103.871416978631,552542
CE12J32X000,"2 ANG MO KIO DRIVE, #01-12 ITE COLLEGE CENTRAL, S(567720)",223,SHENG SIONG SUPERMARKET PTE LTD,SHENG SIONG,1.37750946084273,103.85641349382,567720
CE12V01C000,"16 JALAN KURAS SEMBAWANG HILLS ESTATE, S(577729)",224,HAO MART PTE. LTD.,HAO MART,1.37307949430462,103.829630839555,577729
CE13539N000,"583 ORCHARD ROAD #B1-05/06/07/08/09 FORUM, S(238884)",225,SUPERNATURE PTE LTD,SUPERNATURE,1.30619579912712,103.828509016327,238884
CE13O90C000,"20 AH HOOD ROAD, #02-01, S(329984)",226,NTUC FAIRPRICE CO-OPERATIVE LTD,FAIRPRICE FINEST,1.32694504456951,103.846554377679,329984
CE13R25C000,"447A JALAN KAYU, #01-02, S(791447)",227,NTUC FAIRPRICE CO-OPERATIVE LTD,NTUC FAIRPRICE,1.3921382852483,103.872490556246,791447
CE13S05E000,"249 JALAN KAYU, S(799473)",228,HAMINI PTE. LTD.,LABIBA ENTERPRISE,1.39657691054767,103.872860366695,799473
CE13Z03L000,"3 TEMASEK BOULEVARD SUNTEC CITY MALL (#B1-150 TO #B1-159), S(038983)",229,COLD STORAGE SINGAPORE (1983) PTE LTD,GIANT HYPERFRESH,1.29487905002429,103.857675494346,038983
CE13Z38L000,"12 MARINA VIEW, #01-06/08 ASIA SQUARE TOWER 2 (3 Units: 6, 7 & 8), S(018961)",230,AP HOUSE PTE. LTD.,AP,1.27830729633252,103.850795180871,018961
CE13Z98K000,"808 FRENCH ROAD, #01-01 KITCHENER COMPLEX, S(200808)",231,NTUC FAIRPRICE CO-OPERATIVE LTD,NTUC FAIRPRICE,1.30891935878626,103.861725539085,200808
CE14938E000,"133 NEW BRIDGE ROAD, #B1-26 CHINATOWN POINT, S(059413)",232,SONG FISH DEALER PTE LTD,SONG FISH- SEAFOOD MARKET PLACE,1.28533894878838,103.845015574621,059413
CE14G71E000,"16 ENGGOR STREET ALTEZ (UNITS: #01-05/06/07/08), S(079717)",233,COLD STORAGE SINGAPORE (1983) PTE LTD,COLD STORAGE,1.27461794103822,103.844319553688,079717
CE14G73B000,"12 KALLANG AVENUE, #01-47 APERIA, S(339511)",234,COLD STORAGE SINGAPORE (1983) PTE LTD,COLD STORAGE,1.30974242032355,103.864101647509,339511
CE14L50J000,"33 SENGKANG WEST AVENUE, #B2-24 THE SELETAR MALL, S(797653)",235,NTUC FAIRPRICE CO-OPERATIVE LTD,FAIRPRICE FINEST,1.39130622992517,103.876085067727,797653
CE14Q85A000,"310 GEYLANG ROAD, S(389349)",236,B & S MINI MART PTE. LTD.,B&S MINIMART,1.31245131450842,103.879622127227,389349
CE15023A000,"8 SELETAR NORTH LINK, #G1-03 PPT LODGE 1A, S(797455)",237,GW TRADER PTE. LTD.,GW MINIMART,1.41862641855621,103.896776225815,797455
CE15042P000,"2 SELETAR NORTH LINK, #01-38 PPT LODGE 1B, S(797601)",238,D-RON INVESTMENTS PTE. LTD.,HOME SUPERMART,1.41730513025161,103.8962032079,797601
CE15577J000,"442 ORCHARD ROAD, #B1-01/11 ORCHARD HOTEL, S(238879)",239,COLD STORAGE SINGAPORE (1983) PTE LTD,COLD STORAGE,1.30766860940267,103.828164396352,238879
CE15695V000,"279 SENGKANG EAST AVENUE, #01-06 MULTI STOREY CAR PARK, S(540279)",240,NTUC FAIRPRICE CO-OPERATIVE LTD,NTUC FAIRPRICE,1.38621835522425,103.89299549602,540279
CE15B61K000,"330 ANCHORVALE STREET, #01-01, S(540330)",241,U STARS SUPERMARKET PTE. LTD.,U STARS SUPERMARKET,1.3968497990014,103.889246755784,540330
CE15G35E000,"20 LENGKOK BAHRU, #01-13, S(159053)",243,NTUC FAIRPRICE CO-OPERATIVE LTD,NTUC FAIRPRICE,1.28686170538596,103.813904189286,159053
CE15J25N000,"85 DAWSON ROAD, #01-01 MULTI STOREY CAR PARK, S(141085)",244,SHENG SIONG SUPERMARKET PTE LTD,SHENG SIONG,1.29531966312622,103.809758591447,141085
CE16445A000,"809 FRENCH ROAD, #03-31 KITCHENER COMPLEX, S(200809)",245,MAHOTA FOOD PTE. LTD.,MAHOTA COMMUNE,1.3083939667367,103.862059784174,200809
CE16913J000,"473 FERNVALE STREET, #01-06 FERNVALE RIVERGROVE, S(790473)",246,SHENG SIONG SUPERMARKET PTE LTD,SHENG SIONG,1.39779874741053,103.881698806174,790473
CE16E64A000,"106 HENDERSON CRESCENT, #01-47 HENDERSONVILLE, S(150106)",247,HAO MART PTE. LTD.,HAO MART,1.28942607947152,103.822276781927,150106
CE16I13V000,"68 ORCHARD ROAD, #B2-17 PLAZA SINGAPURA, S(238839)",248,IROHA INTERNATIONAL PTE. LTD.,IROHA MART,1.30082071769235,103.845067272666,238839
CE16K18V000,"574 ANG MO KIO AVENUE 10, #01-1847, S(560574)",249,NTUC FAIRPRICE CO-OPERATIVE LTD,FAIRPRICE SHOP,1.37089456931834,103.856396509138,560574
CE16M43E000,"7 WALLICH STREET, #B2-06 TANJONG PAGAR CENTRE, S(078884)",250,LITTLE FARMS PTE. LTD.,LITTLE FARMS,1.27679934512004,103.845460373051,078884
CE17174A000,"118 HOLLAND AVENUE, #B1-01/10 RAFFLES HOLLAND V, S(278997)",251,TASTE (SINGAPORE) PRIVATE LIMITED,TASTE SINGAPORE,1.31052977905883,103.796105203103,278997
CE17A46V000,"222 BISHAN STREET 23, #01-K1, S(570222)",252,HAO MART PTE. LTD.,HAO MART,1.3580352499992,103.848208486822,570222
CE17A77E000,"1 JALAN DUSUN, #01-09/10 ONE DUSUN RESIDENCES, S(329363)",253,CAVEMEN PTE. LTD.,CAVEMEN,1.32696539864482,103.84367423097,329363
CE17E43B000,"410A SIN MING AVENUE, #01-02 MULTI STOREY CAR PARK, S(571410)",254,HAO MART PTE. LTD.,HAO MART,1.36321586325047,103.83544535822,571410
CE17F56J000,"133 NEW BRIDGE ROAD, #B1-11 CHINATOWN POINT, S(059413)",255,IROHA INTERNATIONAL PTE. LTD.,IROHA MART,1.28533894878838,103.845015574621,059413
CE17J36N000,"5 STRAITS VIEW, #B2-15/16 THE HEART, S(018935)",256,COLD STORAGE SINGAPORE (1983) PTE LTD,COLD STORAGE,1.27752628872267,103.85293534419,018935
CE17K55B000,"30 BENDEMEER ROAD, #01-871 BENDEMEER VILLE, S(330030)",257,NTUC FAIRPRICE CO-OPERATIVE LTD,FAIRPRICE SHOP,1.319303367127,103.86404981515,330030
CE17L02A000,"95 LORONG 4 TOA PAYOH, #01-68 TOA PAYOH PALM SPRING, S(310095)",258,NTUC FAIRPRICE CO-OPERATIVE LTD,FAIRPRICE SHOP,1.338974038346,103.849002148998,310095
CE17L45A000,"181 ORCHARD ROAD, #B2-01/03 ORCHARD CENTRAL, S(238896)",259,PAN PACIFIC RETAIL MANAGEMENT (SINGAPORE) PTE. LTD.,DON DON DONKI,1.30072350356704,103.839692368177,238896
CE17M26A000,"17 JALAN TENTERAM, #01-128, S(321017)",260,HAO MART PTE. LTD.,HAO MART,1.32821169071169,103.859812573047,321017
CE17M36X000,"146 JALAN BUKIT MERAH, #01-1074, S(160146)",261,HAO MART PTE. LTD.,HAO MART,1.27784876576774,103.830811459909,160146
CE17P14L000,"3 TEMASEK BOULEVARD, #01-616 SUNTEC CITY MALL, S(038983)",262,SF (313) PTE. LTD.,SF FARM MART,1.29487905002429,103.857675494346,038983
CE17Q32B000,"417 FERNVALE LINK, #01-11 MULTI STOREY CAR PARK, S(790417)",263,SHENG SIONG SUPERMARKET PTE LTD,SHENG SIONG,1.39158622983505,103.879874611419,790417
CE17Q33A000,"338 ANCHORVALE CRESCENT, #01-11 MULTI STOREY CAR PARK, S(540338)",264,SHENG SIONG SUPERMARKET PTE LTD,SHENG SIONG,1.39922772538912,103.88965593061,540338
CE18A78X000,"100 TRAS STREET, #02-01/05 100 AM, S(079027)",265,PAN PACIFIC RETAIL MANAGEMENT (SINGAPORE) PTE. LTD.,DON DON DONKI,1.27458821795426,103.84347073661,079027
CE18I13C000,"3 LORONG LIPUT, #01-04 HOLLAND VILLAGE CORNER, S(277725)",266,LITTLE FARMS PTE. LTD.,LITTLE FARMS,1.31064349551562,103.795246166084,277725
CE18P85X000,"111 SOMERSET ROAD, #01-01/02 TRIPLEONE SOMERSET, S(238164)",267,NTUC FAIRPRICE CO-OPERATIVE LTD,FAIRPRICE FINEST,1.30019272342804,103.837362540861,238164
CE18R47X000,"991 BUANGKOK LINK, #01-28 MULTI STOREY CAR PARK, S(530991)",268,PRIME SUPERMARKET (1996) PTE LTD,PRIME SUPERMARKET,1.38433426615655,103.881623070164,530991
CE18T11J000,"8A MARINA BOULEVARD, #B2-44-50 MARINA BAY LINK MALL, S(018984)",269,COLD STORAGE SINGAPORE (1983) PTE LTD,JO BY COLD STORAGE,1.28046794331672,103.85347014858,018984
CE18T88K000,"180 KITCHENER ROAD, #B2-06 CITY SQUARE MALL, S(208539)",270,PAN PACIFIC RETAIL MANAGEMENT (SINGAPORE) PTE. LTD.,DON DON DONKI,1.31147744952234,103.856780762986,208539
CE18W55K000,"803 KING GEORGE'S AVENUE, #01-168, S(200803)",271,HAO MART PTE. LTD.,HAO MART,1.30811749102335,103.861188606169,200803
CE19351J000,"2 BAYFRONT AVENUE, #01-29 MARINA BAY SANDS, S(018972)",272,COLD STORAGE SINGAPORE (1983) PTE LTD,Jasons Deli By Cold Storage,1.28332249857386,103.857629111139,018972
CE19392L000,"15 DEMPSEY ROAD, S(249675)",273,CULINA PTE. LTD.,CULINA,1.30518823313112,103.810314282281,249675
CE19799X000,"991 BUANGKOK LINK, #01-24/25 MULTI STOREY CAR PARK, S(530991)",274,SUZYAMEER FROZEN PTE. LTD.,SUZYAMEER FROZEN,1.38433426615655,103.881623070164,530991
CE19878A000,"10 SINARAN DRIVE, #B1-01/85 SQUARE 2, S(307506)",275,PAN PACIFIC RETAIL MANAGEMENT (SINGAPORE) PTE. LTD.,DON DON DONKI,1.32061258625866,103.844331494859,307506
CE19910L000,"107 NORTH BRIDGE ROAD, #B1-10, S(179105)",276,NTUC FAIRPRICE CO-OPERATIVE LTD,FAIRPRICE FINEST,1.29124400604241,103.849984790048,179105
CE19987N000,"51 UPPER SERANGOON ROAD, #01-30-32 THE POIZ CENTRE, S(347697)",277,NTUC FAIRPRICE CO-OPERATIVE LTD,NTUC FAIRPRICE,1.33130351440716,103.868076452861,347697
CE19A43K000,"351 ANCHORVALE ROAD, #01-05 MULTI STOREY CAR PARK, S(540351)",278,SHENG SIONG SUPERMARKET PTE LTD,SHENG SIONG,1.39332786581517,103.886617625113,540351
CE19H85N000,"6 EU TONG SEN STREET, #B1-11-24 THE CENTRAL, S(059817)",279,PAN PACIFIC RETAIL MANAGEMENT (SINGAPORE) PTE. LTD.,DON DON DONKI,1.28886291624461,103.846555999235,059817
CE19I23N000,"1 KIM SENG PROMENADE, #B2-111 GREAT WORLD CITY, S(237994)",280,MEIDI-YA SINGAPORE CO (PTE) LTD,MEIDI-YA SUPERMARKET,1.2931549290701,103.831928020443,237994
CE19K92V000,"116 JALAN TENTERAM, #01-02 MULTI STOREY CAR PARK, S(320116)",281,HAO MART PTE. LTD.,HAO MART,1.32769993704525,103.861236369481,320116
E02026P000,"20 EASTWOOD ROAD, #01-07/09 EASTWOOD CENTRE, S(486442)",282,COLD STORAGE SINGAPORE (1983) PTE LTD,COLD STORAGE,1.32144768095064,103.955419464473,486442
E02027N000,"80 MARINE PARADE ROAD, #B1-84 PARKWAY PARADE SHOPPING CENTRE, S(449269)",283,COLD STORAGE SINGAPORE (1983) PTE LTD,COLD STORAGE,1.30108003311455,103.90528181445,449269
E02028L000,"266 SERANGOON CENTRAL DRIVE, #01-255, S(550266)",284,COLD STORAGE SINGAPORE (1983) PTE LTD,Giant Supermarket.,1.35323198383248,103.871472595608,550266
E02030B000,"306 UBI AVENUE 1, #01-185, S(400306)",285,COLD STORAGE SINGAPORE (1983) PTE LTD,GIANT,1.32987117232209,103.901930369733,400306
E02032V000,"539A BEDOK NORTH STREET 3, #01-477 BEDOK NORTH AREA OFFICE, S(461539)",286,SHENG SIONG SUPERMARKET PTE LTD,SHENG SIONG,1.33240230571086,103.925500595677,461539
E02033X000,"509 BEDOK NORTH STREET 3, #01-121, S(460509)",287,COLD STORAGE SINGAPORE (1983) PTE LTD,GIANT SUPER,1.33317541870197,103.931265025162,460509
E02034P000,"114 ALJUNIED AVENUE 2, #01-75, S(380114)",288,NTUC FAIRPRICE CO-OPERATIVE LTD,NTUC FAIRPRICE,1.32172296225797,103.886811795181,380114
E02035N000,"212 BEDOK NORTH STREET 1, #01-147, S(460212)",289,NTUC FAIRPRICE CO-OPERATIVE LTD,NTUC FAIRPRICE,1.32594069200441,103.931640022396,460212
E02039E000,"152B SERANGOON NORTH AVENUE 1, #01-384, S(552152)",290,NTUC FAIRPRICE CO-OPERATIVE LTD,NTUC FAIRPRICE,1.36979940374161,103.87303579046,552152
E02041X000,"25A CHAI CHEE ROAD, #01-459, S(461025)",291,PRIME SUPERMARKET LIMITED,PRIME SUPERMARKET,1.32328959946584,103.924149636877,461025
E02042P000,"803 KING GEORGE'S AVENUE, #01-154, S(200803)",292,PRIME SUPERMARKET LIMITED,PRIME,1.30811749102335,103.861188606169,200803
E02045K000,"118 ALJUNIED AVENUE 2, S(380118)",293,SHENG SIONG SUPERMARKET PTE LTD,SHENG SIONG,1.32000040187831,103.887363064677,380118
E02047E000,"348 BEDOK ROAD, #01-01 BEDOK SHOPPING COMPLEX, S(469560)",294,COLD STORAGE SINGAPORE (1983) PTE LTD,GIANT SUPERMARKET,1.33143623119911,103.948260304303,469560
E02072C000,"29 CHAI CHEE AVENUE, #01-62, S(460029)",295,TEO BOBBY,NTUC FAIRPRICE,1.32476040143251,103.924370232312,460029
E02096K000,"6 MARINE PARADE CENTRAL NTUC FAIRPRICE SUPERMARKET, S(449411)",296,NTUC FAIRPRICE CO-OPERATIVE LTD,NTUC FAIRPRICE,1.30134707556712,103.907183628134,449411
E02140N000,"1 JALAN BERSEH, #B1-02 NEW WORLD CENTRE, S(209037)",297,SHENG SIONG SUPERMARKET PTE LTD,SHENG SIONG,1.30778509510261,103.857010982845,209037
E02196C000,"80 MARINE PARADE ROAD, #03-27/62 PARKWAY PARADE, S(449269)",298,COLD STORAGE SINGAPORE (1983) PTE LTD,GIANT HYPERMARKET,1.30108003311455,103.90528181445,449269
E03034J000,"115 BEDOK NORTH ROAD, #01-319, S(460115)",299,SHENG SIONG SUPERMARKET PTE LTD,SHENG SIONG,1.33143368026417,103.936865404278,460115
E73010V000,"11 UPPER BOON KENG ROAD, #01-901, S(380011)",300,SHENG SIONG SUPERMARKET PTE LTD,SHENG SIONG,1.31423937033551,103.870914031459,380011
E75097C000,"18 BEDOK SOUTH ROAD, #01-87, S(460018)",301,PRIME SUPERMARKET (1996) PTE LTD,prime supermarket,1.32062504871279,103.934734222428,460018
E82118V000,"537 BEDOK NORTH STREET 3, #01-555, S(460537)",302,HAO MART PTE. LTD.,HAO MART,1.33177300757048,103.924236461237,460537
E83157K000,"934 EAST COAST ROAD, S(459125)",303,NTUC FAIRPRICE CO-OPERATIVE LTD,NTUC FAIRPRICE,1.31230757275549,103.925234546756,459125
E85090E000,"120 POTONG PASIR AVENUE 1, #01-812, S(350120)",304,HAO MART PTE. LTD.,HAO MART,1.33545353246777,103.863387980398,350120
E95315V000,"77 CIRCUIT ROAD, #01-464/6, S(370077)",305,NTUC FAIRPRICE CO-OPERATIVE LTD,NTUC FAIRPRICE,1.32855656206109,103.885349899665,370077
E98161V000,"  EAST COAST ROAD, S(428932)",306,NTUC FAIRPRICE CO-OPERATIVE LTD,NTUC FAIRPRICE,1.30837600256327,103.908014960631,428932
J02008P000,"410 CHOA CHU KANG AVENUE 3, #01-341, S(680410)",307,ANG KEN CHUA,-,1.38062798768557,103.741520103731,680410
J02009N000,"544 JURONG WEST STREET 42, #01-97/99, S(640544)",308,SHENG SIONG SUPERMARKET PTE LTD,SHENG SIONG,1.35239358298744,103.71575950591,640544
J02010E000,"475 CHOA CHU KANG AVENUE 3, #01-01, S(680475)",309,COLD STORAGE SINGAPORE (1983) PTE LTD,GIANT,1.37789727654674,103.739015486293,680475
J02011C000,"464 UPPER BUKIT TIMAH ROAD, S(678077)",310,COLD STORAGE SINGAPORE (1983) PTE LTD,COLD STORAGE,1.36012154858666,103.767557968755,678077
J02013A000,"221 BOON LAY PLACE, #02-200 BOON LAY SHOPPING CENTRE, S(640221)",311,NTUC FAIRPRICE CO-OPERATIVE LTD,NTUC FAIRPRICE,1.34639604683977,103.712387709421,640221
J02016P000,"442 JURONG WEST AVENUE 1, #01-756, S(640442)",312,NG TOH TET,Seng Eng,1.35151847519437,103.719496480131,640442
J02017N000,"373 BUKIT BATOK STREET 31, #01-248, S(650373)",313,PRIME SUPERMARKET LIMITED,Prime Supermarket,1.35892457118178,103.750397174291,650373
J02018L000,"253 CHOA CHU KANG AVENUE 1, #B1-07/10, S(680253)",314,PRIME SUPERMARKET (1996) PTE LTD,PRIME SUPERMARKET,1.37677749544409,103.744548948082,680253
J02019K000,"962 JURONG WEST STREET 91, #01-300, S(640962)",315,PRIME SUPERMARKET LIMITED,Prime Supermarket,1.34180915377904,103.691512648994,640962
J02020B000,"142 TECK WHYE LANE, #01-281, S(680142)",316,PRIME SUPERMARKET (1996) PTE LTD,PRIME SUPERMARKET,1.38079049641025,103.75195441174,680142
J02021A000,"376 BUKIT BATOK STREET 31, #01-116, S(650376)",317,COLD STORAGE SINGAPORE (1983) PTE LTD,COLD STORAGE,1.35831705249927,103.749579868748,650376
J03027B000,"17 KIAN TECK LANE, #01-65, S(627851)",318,KADER HASNA MARICAN,JURONG ISLAND MINIMART,1.33315777264333,103.695292109865,627851
J03056N000,"492 JURONG WEST STREET 41 #01-24/26/28, S(640492)",319,COLD STORAGE SINGAPORE (1983) PTE LTD,COLD STORAGE,1.34994543559348,103.725180466645,640492
J87134E000,"257 KRANJI ROAD 1ST STOREY, S(739503)",320,BALASUBRAMANIYAN KANNADASAN,G & G WHOLESALE & MARKETING,1.43594536031501,103.754008428765,739503
J92067N000,"371 BUKIT BATOK STREET 31, #01-324, S(650371)",321,MCP FAIRMART PTE. LTD.,MCP FAIRMART,1.35925940866068,103.75069463109,650371
J94081B000,"763 JURONG WEST STREET 75, #01-01, S(640763)",322,PRIME SUPERMARKET LIMITED,PRIME SUPERMARKET,1.34874400271888,103.698298780189,640763
J96145K000,"21 CHOA CHU KANG AVENUE 4, #B1-03 LOT 1 SHOPPERS' MALL, S(689812)",323,NTUC FAIRPRICE CO-OPERATIVE LTD,NTUC FAIRPRICE,1.38506836476439,103.744950378814,689812
NE04047K000,"138 TAMPINES STREET 11, #01-136, S(521138)",324,NTUC FAIRPRICE CO-OPERATIVE LTD,NTUC FAIRPRICE,1.3455045062724,103.945588355383,521138
NE04092A000,"625 ELIAS ROAD, #01-302 ELIAS MALL, S(510625)",325,U STARS PTE. LTD.,U STARS SUPERMARKET,1.37857026131446,103.941989099734,510625
NE04107V000,"168 PUNGGOL FIELD, #03-01 PUNGGOL PLAZA, S(820168)",326,NTUC FAIRPRICE CO-OPERATIVE LTD,NTUC FAIRPRICE,1.39418409438271,103.912976437583,820168
NE04109P000,"21 KAKI BUKIT AVENUE 3 GOLDEN BUKIT DORMITORY 2, S(415920)",327,AZ SUPERMART PTE. LTD.,AZ SUPERMART,1.33809979194558,103.909970081992,415920
NE04114A000,"866A TAMPINES STREET 83, #01-01 TAMPINES CENTRAL COMMUNITY COMPLEX, S(521866)",328,NTUC FAIRPRICE CO-OPERATIVE LTD,NTUC FAIRPRICE,1.35542177253675,103.934315234737,521866
NE04155C000,"829 TAMPINES ST 81, S(520829)",329,YES SUPERMARKET PTE LTD,YES Supermarket,1.34922419580696,103.934912515373,520829
NE19271N000,"231 SUMANG LANE, #01-02, S(820231)",374,SHENG SIONG SUPERMARKET PTE LTD,SHENG SIONG,1.40205998268188,103.892211658905,820231
NE06429X000,"266 COMPASSVALE BOW, #01-02 MULTI STOREY CAR PARK, S(540266)",330,COLD STORAGE SINGAPORE (1983) PTE LTD,COLD STORAGE,1.38187771301641,103.897039857818,540266
NE07474A000,"21 TAMPINES NORTH DRIVE 2 GIANT HYPERMARKETS, S(528765)",331,COLD STORAGE SINGAPORE (1983) PTE LTD,COLD STORAGE,1.37222456162023,103.932046199992,528765
NE08058P000,"1 PASIR RIS CLOSE, #02-127 PASIR RIS NTUC RESORT, S(519599)",332,NTUC FAIRPRICE CO-OPERATIVE LTD,NTUC FAIRPRICE,1.37918445128046,103.955013328302,519599
NE08150C000,"BLK 277C COMPASSVALE LINK, #01-13 UNIT 01, S(543277)",333,NTUC FAIRPRICE CO-OPERATIVE LTD,NTUC FAIRPRICE,1.38233698966981,103.893607838756,543277
NE08357A000,"201D TAMPINES STREET 21, #01-1161, S(524201)",334,SUZYAMEER FROZEN PTE. LTD.,SUZYAMEER FROZEN,1.35226231425316,103.953586491358,524201
NE08405X000,"632 BEDOK RESERVOIR ROAD, #01-824, S(470632)",335,CHUA & NG PTE. LTD.,KAKA FRUITS & VEGETABLE SPECIALIST,1.33205094618817,103.914145075793,470632
NE09027A000,"10 TAMPINES CENTRAL 1, #B1-01/02, S(529536)",336,COLD STORAGE SINGAPORE (1983) PTE LTD,COLD STORAGE,1.35417680835159,103.945131035338,529536
NE09263B000,"100 HOUGANG AVENUE 10, #02-01, S(538767)",337,NTUC FAIRPRICE CO-OPERATIVE LTD,NTUC FAIRPRICE,1.37173057290273,103.894208457596,538767
NE09314N000,"776 PASIR RIS STREET 71, #01-412, S(510776)",338,COLD STORAGE SINGAPORE (1983) PTE LTD,GIANT,1.37461117497015,103.937175821555,510776
NE09359K000,"301 PUNGGOL CENTRAL, #01-01 MULTI STOREY CAR PARK, S(820301)",339,SHENG SIONG SUPERMARKET PTE LTD,SHENG SIONG,1.40371939757402,103.906138006707,820301
NE10113B000,"639 PUNGGOL DRIVE, #01-01, S(820639)",340,ANG MO SUPERMARKET PTE LTD,ang mo supermarket,1.39944615081314,103.916054653165,820639
NE10213X000,"280 TAMPINES STREET 22, #01-244, S(520280)",341,SHAHUL HAMEED S/O ABDUSALAM,begonia supermarket,1.34753519689194,103.951702776881,520280
NE10310X000,"1 MAJU AVENUE, #B1-11-14 MY  VILLAGE, S(556679)",342,NTUC FAIRPRICE CO-OPERATIVE LTD,FINEST,1.3652806057289,103.865101220515,556679
NE11529V000,"159A HOUGANG STREET 11, #01-01 MULTI STOREY CAR PARK, S(531159)",343,PRIME SUPERMARKET (1996) PTE LTD,PRIME SUPERMARKET,1.35209060355776,103.879314590828,531159
NE11909C000,"683 HOUGANG AVENUE 8, #01-903, S(530683)",344,COLD STORAGE SINGAPORE (1983) PTE LTD,COLD STORAGE,1.37331270061833,103.886367847223,530683
NE12B79A000,"612 PUNGGOL DRIVE, #01-06, S(820612)",345,NTUC FAIRPRICE CO-OPERATIVE LTD,NTUC FAIRPRICE,1.40461003085618,103.908665597491,820612
NE12I65N000,"273C PUNGGOL PLACE, #01-884 PUNGGOL REGALIA, S(823273)",346,LI LI CHENG SUPERMARKET (PUNGGOL) PTE. LTD.,LI LI CHENG SUPERMARKET,1.40230301367166,103.901262391698,823273
NE13M11K000,"622D PUNGGOL CENTRAL, #01-06 PUNGGOL SPECTRA, S(824622)",347,COLD STORAGE SINGAPORE (1983) PTE LTD,COLD STORAGE,1.40053114998822,103.910536919134,824622
NE14190K000,"23 KAKI BUKIT ROAD 3, #01-02 THE LEO, S(415812)",348,VIVA CORP SERVICES PTE. LTD.,VIVA MART ENTERPRISES,1.33724722996277,103.903852862714,415812
NE15002X000,"506 TAMPINES CENTRAL 1, #01-361 S11 COURT, S(520506)",349,SHENG SIONG SUPERMARKET PTE LTD,SHENG SIONG,1.35595238706011,103.945937400867,520506
NE15006K000,"78 SERANGOON GARDEN WAY, #01-01 SERANGOON GARDEN ESTATE, S(555974)",350,SFERM PTE. LTD.,SFERM,1.36428136996969,103.86513393838,555974
NE15211C000,"312A SUMANG LINK, #01-04 PUNGGOL PARCVISTA, S(821312)",351,SHENG SIONG SUPERMARKET PTE LTD,SHENG SIONG,1.41081926900094,103.900371677782,821312
NE15276N000,"527D PASIR RIS STREET 51, #01-01 COSTA RIS, S(514527)",352,SHENG SIONG SUPERMARKET PTE LTD,SHENG SIONG,1.36968625501963,103.947922425135,514527
NE15440C000,"261 PUNGGOL WAY, #01-02 MULTI STOREY CAR PARK, S(820261)",353,U STARS SUPERMARKET PTE. LTD.,U STARS SUPERMARKET,1.40541353725005,103.896823893544,820261
NE15467C000,"476 UPPER SERANGOON VIEW, #02-18 MULTI STOREY CAR PARK, S(530476)",354,NTUC FAIRPRICE CO-OPERATIVE LTD,NTUC FAIRPRICE,1.37743006696183,103.903712864065,530476
NE15476B000,"308C PUNGGOL WALK, #01-352 WATERWAY TERRACES I, S(823308)",355,HAO MART PTE. LTD.,HAO MART,1.40800694944027,103.899074357998,823308
NE15611B000,"671 EDGEFIELD PLAINS, #02-01, S(820671)",356,COLD STORAGE SINGAPORE (1983) PTE LTD,GIANT SUPERMARKET,1.40566048045603,103.911991277154,820671
NE15760A000,"11 PASIR RIS LINK, #01-48 SEASTRAND, S(518180)",357,RAW MARKET PTE. LTD.,RAW MARKET,1.37558830923856,103.960839727163,518180
NE15762X000,"83 PUNGGOL CENTRAL, #B2-32 WATERWAY POINT, S(828761)",358,NTUC FAIRPRICE CO-OPERATIVE LTD,FAIRPRICE FINEST,1.40638890775119,103.902150850842,828761
NE16139A000,"259 PASIR RIS STREET 21, #01-27, S(510259)",359,COLD STORAGE SINGAPORE (1983) PTE LTD,GIANT,1.36645364010349,103.964598499523,510259
NE16363K000,"1 SENGKANG SQUARE, #B1-25 1 SENGKANG MALL (1SM), S(545078)",360,COLD STORAGE SINGAPORE (1983) PTE LTD,COLD STORAGE,1.39209415594052,103.894980025383,545078
NE16747J000,"218 SUMANG WALK, #01-01, S(820218)",362,U STARS SUPERMARKET PTE. LTD.,U STARS SUPERMARKET,1.40322712524584,103.89538702242,820218
NE16875P000,"487B TAMPINES STREET 45, #B1-123, S(521487)",363,HAO MART PTE. LTD.,HAO MART,1.36026524882674,103.958372350188,521487
NE17023N000,"258 PASIR RIS STREET 21, #02-10 LOYANG POINT, S(510258)",364,SHENG SIONG SUPERMARKET PTE LTD,SHENG SIONG,1.36700054076336,103.96461777629,510258
NE17098V000,"215C COMPASSVALE DRIVE, #01-01, S(543215)",365,U STARS SUPERMARKET PTE. LTD.,U STARS SUPERMARKET,1.38977026274295,103.892787161183,543215
NE17390X000,"878C TAMPINES AVENUE 8, #01-65, S(523878)",366,U STARS SUPERMARKET PTE. LTD.,U STARS SUPERMARKET,1.35126411286423,103.929363834798,523878
NE17700J000,"660A EDGEDALE PLAINS, #01-01 WATERWAY SUNDEW, S(821660)",367,SHENG SIONG SUPERMARKET PTE LTD,SHENG SIONG,1.40262197348865,103.916519598298,821660
NE18066E000,"183 JALAN PELIKAT, #01-12 THE PROMENADE@PELIKAT, S(537643)",368,ISYMI PTE. LTD.,-,1.35530904178242,103.887857183262,537643
NE18169P000,"681 PUNGGOL DRIVE, #B1-01, S(820681)",369,NTUC FAIRPRICE CO-OPERATIVE LTD,NTUC FAIRPRICE,1.40263460056252,103.913270565628,820681
NE18339P000,"2 TAMPINES CENTRAL 5, #B1-08 CENTURY SQUARE, S(529509)",370,SONG FISH DEALER PTE LTD,THE SEAFOOD MARKET PLACE BY SONG FISH,1.35229139706407,103.943849611798,529509
NE18406E000,"2 TAMPINES CENTRAL 5, #B1-06 CENTURY SQUARE, S(529509)",371,TANESEI RETAILING PTE. LTD.,J-MART JAPANESE FOOD MARKET,1.35229139706407,103.943849611798,529509
NE18529J000,"681 PUNGGOL DRIVE, #01-09, S(820681)",372,SONG FISH DEALER PTE LTD,THE SEAFOOD MARKET PLACE BY SONG FISH,1.40263460056252,103.913270565628,820681
NE18667L000,"658 PUNGGOL EAST, #01-01, S(820658)",373,HAO MART PTE. LTD.,HAO MART,1.39990420674061,103.919352747891,820658
NW04014P000,"102 YISHUN AVENUE 5, #01-125, S(760102)",375,COLD STORAGE SINGAPORE (1983) PTE LTD,-,1.43061830395071,103.828762985019,760102
NW04127A000,"900 SOUTH WOODLANDS DRIVE, #B1-01 WOODLANDS CIVIC CENTRE, S(730900)",376,NTUC FAIRPRICE CO-OPERATIVE LTD,-,1.4350778940091,103.786619615641,730900
NW06239N000,"108 CLEMENTI STREET 11, #01-K1, S(120108)",377,THNG SAIK MONG,-,1.32212392900686,103.770265903384,120108
NW06546V000,"511 CANBERRA ROAD, #02-03 SEMBAWANG MART, S(750511)",378,NTUC FAIRPRICE CO-OPERATIVE LTD,NTUC FAIRPRICE,1.45377580791436,103.819590507054,750511
NW07277P000,"355 SEMBAWANG WAY, #01-01, S(750355)",379,NTUC FAIRPRICE CO-OPERATIVE LTD,NTUC FAIRPRICE,1.44954485621129,103.81872759237,750355
NW07636K000,"406A SEMBAWANG DRIVE, #01-02 MULTI STOREY CAR PARK, S(751406)",380,COLD STORAGE SINGAPORE (1983) PTE LTD,GIANT,1.45273624315703,103.817249275768,751406
NW08020K000,"70 WOODLANDS AVENUE 7, #01-05 ADMIRALTY MRT STATION, S(738344)",381,COLD STORAGE SINGAPORE (1983) PTE LTD,COLD STORAGE,1.44058856161847,103.800990519771,738344
NW08141P000,"41 SUNSET WAY, #01-01A CLEMENTI ARCADE, S(597071)",382,COLD STORAGE SINGAPORE (1983) PTE LTD,COLD STORAGE,1.3235528694581,103.767515486819,597071
NW08314K000,"930 YISHUN AVENUE 2, #B1-06/07 NORTHPOINT, S(769098)",383,COLD STORAGE SINGAPORE (1983) PTE LTD,COLD STORAGE,1.42924414326245,103.836107231373,769098
NW08385B000,"604 SEMBAWANG ROAD, #B1-25 SEMBAWANG SHOPPING CENTRE, S(758459)",384,COLD STORAGE SINGAPORE (1983) PTE LTD,COLD STORAGE,1.44175296834191,103.82479165671,758459
NW08477X000,"36 HOLLAND DRIVE, #01-03, S(270036)",385,NTUC FAIRPRICE CO-OPERATIVE LTD,NTUC FAIRPRICE,1.30922984207133,103.792660857646,270036
NW09331A000,"23 MANDAI ESTATE, #01-21, S(729937)",386,AJMAL TRADE MART PTE. LTD.,AJMAL TRADE MART,1.40630277950122,103.760614578266,729937
NW09437C000,"468B ADMIRALTY DRIVE, #01-29, S(752468)",387,COLD STORAGE SINGAPORE (1983) PTE LTD,COLD STORAGE,1.45000861656514,103.814110899773,752468
NW10192C000,"49 ADMIRALTY ROAD WEST COCHRANE LODGE II, S(757444)",388,PHAN NEE TRADING LLP,PHAN NEE TRADING ,1.46061706917658,103.818786868762,757444
NW11384E000,"1 WOODLANDS SQUARE, #B1-31/32 CAUSEWAY POINT, S(738099)",389,COLD STORAGE SINGAPORE (1983) PTE LTD,COLD STORAGE,1.43608867729912,103.786009973678,738099
NW11702X000,"200 WOODLANDS INDUSTRIAL PARK E7, #01-30 INTERIM RECREATION PARK, S(757177)",390,SHENG SIONG SUPERMARKET PTE LTD,SHENG SIONG,1.45089565555643,103.797050379065,757177
NW11767E000,"1 WOODLANDS ROAD, #01-07 THE TENNERY, S(677899)",391,SHENG SIONG SUPERMARKET PTE LTD,SHENG SIONG,1.38060512473524,103.760041583169,677899
NW12G73N000,"761 YISHUN STREET 72, #01-348 (#01-348-350-352 AND 354), S(760761)",392,PRIME SUPERMARKET (1996) PTE LTD,PRIME,1.42539842469037,103.833259035976,760761
NW12H40C000,"51 ADMIRALTY ROAD WEST - LODGE 1, S(757443)",393,V SURESH KUMAR,V SURESH KUMAR,1.45982817760275,103.820073442051,757443
NW13005P000,"50 WOODLANDS INDUSTRIAL PARK E4, #01-02 WOODLANDS LODGE ONE, S(757388)",394,BHANDARI INTERNATIONAL PTE. LTD.,BHANDARI INTERNATIONAL,1.45010824814177,103.794555278646,757388
NW13J23J000,"32 MANDAI ESTATE, #01-02, S(729939)",395,BISMILLAH MINIMART PTE. LTD.,BISMILLAH MINIMART,1.40754324530867,103.758094978479,729939
NW13K05E000,"570B WOODLANDS AVENUE 1, #01-06, S(732570)",396,NTUC FAIRPRICE CO-OPERATIVE LTD,NTUC FAIRPRICE,1.43106395485681,103.790454078756,732570
NW14006E000,"190 WOODLANDS INDUSTRIAL PARK E7, S(757178)",397,DE ESPERTO MINIMART PTE. LTD.,de esperto minimart,1.45122063768115,103.797853415661,757178
NW14040B000,"463 SEMBAWANG DRIVE, #01-02 MULTI STOREY CAR PARK, S(750463)",398,FORTUNE SUPERMARKET PTE. LTD.,FORTUNE SUPERMARKET,1.45551208632599,103.814540285666,750463
NW14561E000,"51 NORTH COAST AVENUE, #01-03 NORTH COAST LODGE, S(756992)",399,7SEVEN PTE. LTD.,7SEVEN,1.45624036127178,103.786690094753,756992
NW15186C000,"547 SEGAR ROAD, #01-06 MULTI STOREY CAR PARK, S(670547)",400,SHENG SIONG SUPERMARKET PTE LTD,SHENG SIONG,1.3882402168269,103.76957538706,670547
NW15220L000,"780 WOODLANDS CRESCENT, #01-01 MULTI STOREY CAR PARK, S(730780)",401,FORTUNE SUPERMARKET PTE. LTD.,FORTUNE SUPERMARKET,1.44834155029683,103.801057143543,730780
NW15264K000,"29 BINJAI PARK BINJAI PARK, S(589831)",402,ALTERNATIVE SELECTION PTE. LTD.,RYAN'S GROCERY,1.33661378718238,103.786974822749,589831
NW15295X000,"896 DUNEARN ROAD, #02-01 SIME DARBY CENTRE, S(589472)",403,COLD STORAGE SINGAPORE (1983) PTE LTD,COLD STORAGE,1.3366210903998,103.78378587807,589472
NW15489B000,"2 WOODLANDS SECTOR 2, #01-05 WESTLITE WOODLANDS DORMITORY, S(737723)",404,AJMAL  TRADING GROUP PTE. LTD.,AJMAL TRADING GROUP,1.46152555128613,103.809438946099,737723
NW16252K000,"460 MANDAI ROAD LEVEL 1, S(729760)",405,GOWRI'S GLOBAL MARKETING PTE. LTD.,GOWRI'S GLOBAL MARKETING,1.41053484314183,103.768446712606,729760
NW16388B000,"18 YISHUN AVENUE 9, #02-06/10 JUNCTION NINE, S(768897)",406,SHENG SIONG SUPERMARKET PTE LTD,SHENG SIONG,1.43303198215119,103.841600823354,768897
NW16634L000,"205 PETIR ROAD, #01-595, S(670205)",407,HAO MART PTE. LTD.,HAO MART,1.37343025396585,103.773924079454,670205
NW16763X000,"505 CANBERRA LINK, #01-01 MONTREAL SPRING, S(750505)",408,HAO MART PTE. LTD.,HAO MART,1.45026201889682,103.822534715231,750505
NW17024A000,"280 WOODLANDS INDUSTRIAL PARK E5, #01-24 HARVEST @ WOODLANDS, S(757322)",409,SUN TRG & CON PTE. LTD.,-,1.45129420141509,103.791151653391,757322
NW17069X000,"17 PETIR ROAD, #B2-03 HILLION MALL, S(678278)",410,SONG FISH DEALER PTE LTD,THE SEAFOOD MARKET PLACE BY SONG FISH,1.37849868060834,103.763022901683,678278
NW17097K000,"17 PETIR ROAD, #B2-67 HILLION MALL, S(678278)",411,NTUC FAIRPRICE CO-OPERATIVE LTD,NTUC FAIRPRICE,1.37849868060834,103.763022901683,678278
NW17277E000,"280 WOODLANDS INDUSTRIAL PARK E5 (PART OF), #01-47 HARVEST @ WOODLANDS, S(757322)",412,BHANDARI INTERNATIONAL PTE. LTD.,BHANDARI INTERNATIONAL,1.45129420141509,103.791151653391,757322
NW17310P000,"930 YISHUN AVENUE 2, #B1-05 NORTHPOINT SHOPPING CENTRE, S(769098)",413,SONG FISH DEALER PTE LTD,THE SEAFOOD MARKET PLACE BY SONG FISH,1.42924414326245,103.836107231373,769098
NW17421C000,"446 FAJAR ROAD, #01-01, S(670446)",414,SHENG SIONG SUPERMARKET PTE LTD,SHENG SIONG,1.38397139014156,103.77110023409,670446
NW17699N000,"10 WOODLANDS INDUSTRIAL PARK E1, S(757733)",415,CUTECH GREEN VENTURES PTE. LTD.,GREEN VENTURES,1.45334363120531,103.795682398584,757733
NW17734V000,"4 WOODLANDS STREET 12, #02-61, S(738623)",416,SHENG SIONG SUPERMARKET PTE LTD,SHENG SIONG,1.43351253520759,103.779746860157,738623
NW17872B000,"1 NORTHPOINT DRIVE, #B2-103 NORTHPOINT CITY, S(768019)",417,NTUC FAIRPRICE CO-OPERATIVE LTD,NTUC FAIRPRICE,1.42803585211784,103.836092100712,768019
NW17908L000,"676 WOODLANDS DRIVE 71, #B1-02, S(730676)",418,NTUC FAIRPRICE CO-OPERATIVE LTD,NTUC FAIRPRICE,1.43974951798078,103.800720711621,730676
NW18091N000,"29A GHIM MOH LINK, #01-01, S(271029)",420,NTUC FAIRPRICE CO-OPERATIVE LTD,NTUC FAIRPRICE,1.30849288050575,103.784598100953,271029
NW18192E000,"598 YISHUN RING ROAD, #01-01 WISTERIA MALL, S(768698)",421,NTUC FAIRPRICE CO-OPERATIVE LTD,FAIRPRICE FINEST,1.41799926284039,103.841236456898,768698
NW18310J000,"676 WOODLANDS DRIVE 71, #01-04, S(730676)",422,SONG FISH DEALER PTE LTD,TASTY FARM,1.43974951798078,103.800720711621,730676
NW18478E000,"675 YISHUN AVENUE 4, #01-10, S(760675)",423,SHENG SIONG SUPERMARKET PTE LTD,SHENG SIONG,1.42015550979868,103.843558885942,760675
NW18649C000,"785E WOODLANDS RISE, #01-01, S(735785)",424,SHENG SIONG SUPERMARKET PTE LTD,SHENG SIONG,1.44679888115266,103.805489772817,735785
NW18677X000,"317 YISHUN AVENUE 9, #01-04 YISHUN GREENWALK, S(760317)",425,SMART99 PTE. LTD.,SMART99,1.4337728132864,103.842276902325,760317
NW18778K000,"573 WOODLANDS DRIVE 16, #02-01, S(730573)",426,SHENG SIONG SUPERMARKET PTE LTD,SHENG SIONG,1.43109807246887,103.798507621177,730573
NW18A75V000,"260 ANG MO KIO STREET 21, #01-05 MULTI STOREY CAR PARK, S(560260)",427,ANG MO SUPERMARKET PTE LTD,-,1.36891617080101,103.834499516963,560260
NW18B29C000,"120 CANBERRA CRESCENT, #01-10 MULTI STOREY CAR PARK, S(750120)",428,ANG MO SUPERMARKET PTE LTD,ANG MO SUPERMARKET,1.44565250579578,103.831432705545,750120
NW19066J000,"11 KRANJI CLOSE, #01-17/18, S(737673)",429,RAJ AGRO TRADING PTE. LTD.,RAJ AGRO TRADING ,1.42816791062135,103.752608291345,737673
NW19111K000,"11 KRANJI CLOSE, #01-02/03, S(737673)",430,AJMAL  TRADING GROUP PTE. LTD.,AJMAL TRADING GROUP,1.42816791062135,103.752608291345,737673
NW19252J000,"461 YISHUN AVENUE 6, #01-01 MULTI STOREY CAR PARK, S(760461)",431,PRIME SUPERMARKET (1996) PTE LTD,PRIME FOOD & GROCER,1.42841471915126,103.849972824055,760461
NW19637C000,"443C FAJAR ROAD, #01-70 FAJAR HILLS, S(673443)",432,YEO WHOLESALE AND TRADING PTE. LTD.,YEO EXPRESS,1.38057053056182,103.76973269177,673443
S02021B000,"510 BISHAN STREET 13, #01-520, S(570510)",433,NTUC FAIRPRICE CO-OPERATIVE LTD,NTUC FAIRPRICE,1.34888843900173,103.849691980373,570510
S02023V000,"9 BISHAN PLACE, #B1-20 JUNCTION 8 SHOPPING CENTRE, S(579837)",434,NTUC FAIRPRICE CO-OPERATIVE LTD,FAIRPRICE FINEST,1.3501820033849,103.848515664081,579837
S02024X000,"205 HOUGANG STREET 21, #01-133 HEARTLAND MALL- KOVAN (SUPERMARKET), S(530205)",435,COLD STORAGE SINGAPORE (1983) PTE LTD,COLD STORAGE,1.35954450890401,103.885169070198,530205
S02025P000,"6 HOUGANG AVENUE 3, #01-82, S(530006)",436,LIM KING CHEW,CHIN GUAN HIN MINIMART,1.36271446291047,103.893980503167,530006
S02026N000,"90 HOUGANG AVENUE 10, #B1-07 HOUGANG MALL, S(538766)",437,NTUC FAIRPRICE CO-OPERATIVE LTD,NTUC FAIRPRICE,1.37243678271743,103.893723857613,538766
S02027L000,"682 HOUGANG AVENUE 4, #01-310, S(530682)",438,NTUC FAIRPRICE CO-OPERATIVE LTD,NTUC FAIRPRICE,1.37361830380888,103.885748856217,530682
S02028K000,"202 HOUGANG STREET 21, #01-00, S(530202)",439,NTUC FAIRPRICE CO-OPERATIVE LTD,NTUC FAIRPRICE,1.35754686861981,103.883962381949,530202
S02029J000,"1 HOUGANG STREET 91, #02-01 HOUGANG POINT, S(538692)",440,NTUC FAIRPRICE CO-OPERATIVE LTD,NTUC FAIRPRICE,1.37566728348409,103.87945025083,538692
S02031V000,"309 HOUGANG AVENUE 5, #01-293, S(530309)",441,TAN CHUAN BOON,CHOP AH TAT MINI SUPERMARKET,1.36620554681345,103.895152424666,530309
S02033P000,"440 PASIR RIS DRIVE 4, #01-01, S(510440)",442,COLD STORAGE SINGAPORE (1983) PTE LTD,COLD STORAGE,1.36900809318444,103.958696603631,510440
S02034N000,"1 PASIR RIS CENTRAL STREET 3, #B1-10, S(518457)",443,NTUC FAIRPRICE CO-OPERATIVE LTD,NTUC FAIRPRICE,1.37239898072243,103.949749226457,518457
S02036K000,"9 TAMPINES STREET 32, #01-30, S(529286)",444,COLD STORAGE SINGAPORE (1983) PTE LTD,GIANT SUPERMARKET,1.35459392882388,103.960153484359,529286
S02037J000,"201B TAMPINES STREET 21, #01-1091, S(522201)",445,ONE SUPERMARKET PTE. LTD.,ONE SUPERMARKET,1.35345315769813,103.953009918868,522201
S02038E000,"829 TAMPINES STREET 81, #01-284/8, S(520829)",446,COLD STORAGE SINGAPORE (1983) PTE LTD,GIANT,1.34922419580696,103.934912515373,520829
S02039C000,"4 TAMPINES CENTRAL 5, #B1-12 TAMPINES MALL, S(529510)",447,NTUC FAIRPRICE CO-OPERATIVE LTD,NTUC FAIRPRICE,1.35258025197038,103.944696230083,529510
S02040X000,"823 TAMPINES STREET 81, #01-160, S(520823)",448,PRIME SUPERMARKET LIMITED,prime supermarket,1.3487449454775,103.934024716838,520823
S02041P000,"2 TAMPINES CENTRAL 5 CENTURY SQUARE, S(529509)",449,PRIME SUPERMARKET (1996) PTE LTD,Prime Food & Grocer,1.35229139706407,103.943849611798,529509
S02048B000,"739A BEDOK RESERVOIR ROAD, #01-01 MULTI STOREY CAR PARK, S(471739)",450,SHENG SIONG SUPERMARKET PTE LTD,SHENG SIONG 1 STATION MARKET,1.33824203227296,103.923303932165,471739
S02049A000,"745 BEDOK RESERVOIR ROAD, #01-3015, S(470745)",451,NTUC FAIRPRICE CO-OPERATIVE LTD,NTUC FAIRPRICE,1.33740471892368,103.921774736408,470745
S02051L000,"192 LORONG 4 TOA PAYOH, #01-672, S(310192)",452,NTUC FAIRPRICE CO-OPERATIVE LTD,NTUC FAIRPRICE,1.33166814812852,103.850487239503,310192
SCE19020X000,"2 ORCHARD TURN ION ORCHARD, S(238801)",478,COLD STORAGE SINGAPORE (1983) PTE LTD,Jasons Deli By Cold Storage,1.30404253406976,103.831888294023,238801
SCE20024E000,"1 KIM SENG PROMENADE GREAT WORLD CITY, S(237994)",479,RYAN'S GROCERY (GWC) PTE. LTD.,Ryan's Grocery,1.2931549290701,103.831928020443,237994
SCE20032E000,"2 SERANGOON ROAD TEKKA PLACE, S(218227)",480,NTUC FAIRPRICE CO-OPERATIVE LTD,NTUC FAIRPRICE,1.30465788351304,103.852122945247,218227
SE04012L000,"2 JOO CHIAT ROAD, #01-1139 JOO CHIAT COMPLEX, S(420002)",481,NTUC FAIRPRICE CO-OPERATIVE LTD,NTUC FAIRPRICE,1.31553964446015,103.898764895693,420002
SE04040C000,"1 UPPER ALJUNIED LANE, #01-01, S(360001)",482,PRIME SUPERMARKET LIMITED,PRIME SUPERMARKET,1.33429242412799,103.878746207181,360001
SE04069A000,"209 NEW UPPER CHANGI ROAD, #01-631, S(460209)",483,SHENG SIONG SUPERMARKET PTE LTD,SHENG SIONG,1.32463573076034,103.931068829397,460209
SE04109X000,"89 BEDOK NORTH STREET 4, #01-107, S(460089)",484,MCP FAIRMART PTE. LTD.,MCP FAIRMART,1.33233468349262,103.938051284737,460089
SE04130B000,"41 JALAN TIGA, #01-05, S(390041)",485,NTUC FAIRPRICE CO-OPERATIVE LTD,NTUC FAIRPRICE,1.3078273680821,103.884763845679,390041
SE05117K000,"253 SERANGOON CENTRAL DRIVE, #01-241, S(550253)",486,TEO BOBBY,NTUC FAIRPRICE,1.35403939780038,103.870851534185,550253
SE06112L000,"15 SIGLAP ROAD, #01-01 MANDARIN GARDENS, S(448912)",487,HAO MART PTE. LTD.,HAO MART,1.30706075671037,103.9237697621,448912
SE06125B000,"54 BAYSHORE ROAD, #01-07-08 BAYSHORE PARK, S(469979)",488,HAO MART PTE. LTD.,HAO MART,1.31179544227276,103.936894506125,469979
SE06465L000,"387 UPPER ALJUNIED ROAD, S(367872)",489,TAN PAK NANG,sing hiong market bakery,1.33312324236673,103.878841894011,367872
S02052K000,"475 TAMPINES STREET 44, #01-145, S(520475)",453,NTUC FAIRPRICE CO-OPERATIVE LTD,NTUC FAIRPRICE,1.36032331939995,103.953129640464,520475
S02053J000,"107 TAMPINES STREET 11, #01-353/9, S(521107)",454,NTUC FAIRPRICE CO-OPERATIVE LTD,NTUC FAIRPRICE,1.34836421842072,103.948158723814,521107
S02054E000,"11 RIVERVALE CRESCENT, #03-01 RIVERVALE MALL, S(545082)",455,NTUC FAIRPRICE CO-OPERATIVE LTD,NTUC FAIRPRICE,1.39250410994833,103.904483668323,545082
S02055C000,"118 RIVERVALE DRIVE, #01-08 RIVERVALE PLAZA, S(540118)",456,NTUC FAIRPRICE CO-OPERATIVE LTD,NTUC FAIRPRICE,1.38493202140034,103.901558018666,540118
S02056B000,"301 UPPER THOMSON ROAD, #03-25 THOMSON PLAZA, S(574408)",457,NTUC FAIRPRICE CO-OPERATIVE LTD,FINEST,1.35465019298911,103.830944960934,574408
S02057A000,"181 LORONG 4 TOA PAYOH, #01-602, S(310181)",458,COLD STORAGE SINGAPORE (1983) PTE LTD,Giant Super,1.33361936151806,103.850978678264,310181
S02058V000,"200 UPPER THOMSON ROAD, #B1-01 THOMSON IMPERIAL COURT, S(574424)",459,SHENG SIONG SUPERMARKET PTE LTD,SHENG SIONG,1.35176914072222,103.836067746141,574424
S02059X000,"106 HOUGANG AVENUE 1, #01-1213, S(530106)",460,PRIME SUPERMARKET (1996) PTE LTD,prime supermarket,1.3537029714401,103.890680792553,530106
S02103A000,"500 LORONG 6 TOA PAYOH HDB HUB, S(310500)",461,NTUC FAIRPRICE CO-OPERATIVE LTD,NTUC FAIRPRICE,1.33296549735939,103.847050346651,310500
S02127E000,"108 PUNGGOL FIELD, #01-02, S(820108)",462,PRIME SUPERMARKET LIMITED,PRIME SUPERMARKET,1.39649861628108,103.908866307025,820108
S02151E000,"263 COMPASSVALE STREET, #01-01, S(540263)",463,PRIME SUPERMARKET LIMITED,PRIME,1.39484816501403,103.896042267841,540263
S02169J000,"525 ANG MO KIO AVENUE 10, #01-2401, S(560525)",464,COLD STORAGE SINGAPORE (1983) PTE LTD,GIANT,1.37262666876272,103.853976743801,560525
S02185J000,"982 BUANGKOK CRESCENT, #01-01, S(530982)",465,COLD STORAGE SINGAPORE (1983) PTE LTD,GIANT,1.3808503546459,103.879309094304,530982
S02204N000,"260 KIM KEAT AVENUE, #01-01, S(310260)",466,COLD STORAGE SINGAPORE (1983) PTE LTD,GIANT super,1.331999623417,103.857378530285,310260
S02210X000,"631 BEDOK RESERVOIR ROAD, #01-954, S(470631)",467,COLD STORAGE SINGAPORE (1983) PTE LTD,GIANT EXPRESS,1.33295923556348,103.914941831232,470631
S91085V000,"110 LENGKONG TIGA, #01-233/5, S(410110)",468,NTUC FAIRPRICE CO-OPERATIVE LTD,NTUC FAIRPRICE,1.323653452481,103.910853623161,410110
S93171X000,"642 HOUGANG AVENUE 8, #01-197, S(530642)",469,ANG MO SUPERMARKET PTE LTD,ang mo supermarket,1.37169878879803,103.879948293051,530642
S94081C000,"279 BISHAN STREET 24, #01-62/64, S(570279)",470,NTUC FAIRPRICE CO-OPERATIVE LTD,NTUC FAIRPRICE,1.35722283118337,103.843785252615,570279
S97079B000,"4 LORONG 7 TOA PAYOH, #01-107, S(310004)",471,SHENG SIONG SUPERMARKET PTE LTD,SHENG SIONG,1.33904479783226,103.85554106336,310004
S97166P000,"21 HOUGANG STREET 51, #01-52 HOUGANG GREEN SHOPPING MALL, S(538719)",472,COLD STORAGE SINGAPORE (1983) PTE LTD,COLD STORAGE,1.37931783471773,103.887847089168,538719
S98084K000,"734 PASIR RIS STREET 72, #01-37 (PASIR RIS 734 NEW MARKET), S(510734)",473,NTUC FAIRPRICE CO-OPERATIVE LTD,NTUC FAIRPRICE,1.37976754317116,103.936207567321,510734
SCE19004X000,"88 DESKER ROAD, S(209610)",474,MURUGAN TRADERS PTE. LTD.,MURUGAN TRADERS,1.30849533074696,103.85574632461,209610
SCE19007L000,"13 STAMFORD ROAD CAPITOL PIAZZA, S(178905)",475,HAO MART PTE. LTD.,HAO MART,1.29306335877347,103.851293463737,178905
SCE19016K000,"225 LAVENDER STREET (FIRST STOREY), S(338776)",476,THE IRON GROCER PTE. LTD.,The Iron Grocer,1.31474015468409,103.859504689114,338776
SCE19018E000,"10 CLAYMORE HILL AMERICAN CLUB (PART-OF), S(229573)",477,"American Club, The",The Gourmet Pantry,1.30851242020942,103.832206903568,229573
SE06616X000,"212 LORONG 8 TOA PAYOH, #01-43/45, S(310212)",490,LIN POH LING,Hoe Kee Huat Supermarket,1.34064293639026,103.85433449712,310212
SE07216L000,"5 STADIUM WALK, #B1-01 LEISURE PARK, S(397693)",491,COLD STORAGE SINGAPORE (1983) PTE LTD,COLD STORAGE,1.30233745290722,103.876449175952,397693
SE07559P000,"65 AIRPORT BOULEVARD, #B2-10 CHANGI AIRPORT TERMINAL 3, S(819663)",492,NTUC FAIRPRICE CO-OPERATIVE LTD,NTUC FAIRPRICE,1.35640628728788,103.986211815854,819663
SE09608P000,"56 MARINE TERRACE, #01-259, S(440056)",493,COLD STORAGE SINGAPORE (1983) PTE LTD,COLD STORAGE,1.30560569433107,103.91537607851,440056
SE09706N000,"5 EUNOS CRESCENT, #01-2619, S(400005)",494,NTUC FAIRPRICE CO-OPERATIVE LTD,-,1.32119096792976,103.903554516253,400005
SE10553J000,"80 MARINE PARADE ROAD, #B1-83A PARKWAY PARADE, S(449269)",495,FOUR SEASONS ORGANIC MARKET PTE. LTD.,FOUR SEASONS ORGANIC MARKET,1.30108003311455,103.90528181445,449269
SE10564B000,"23 SERANGOON CENTRAL, #03-42 NEX, S(556083)",496,NTUC FAIRPRICE CO-OPERATIVE LTD,NTUC FAIRPRICE,1.3506755212032,103.871861615443,556083
SE10579K000,"23 SERANGOON CENTRAL, #B2-44/45 NEX, S(556083)",497,COLD STORAGE SINGAPORE (1983) PTE LTD,COLD STORAGE,1.3506755212032,103.871861615443,556083
SE11071C000,"89 BEDOK NORTH STREET 4, #01-77/79, S(460089)",498,NTUC FAIRPRICE CO-OPERATIVE LTD,NTUC FAIRPRICE,1.33233468349262,103.938051284737,460089
SE11136C000,"498/500 GEYLANG ROAD GREEN COURT, S(389456)",499,I-TEC SUPERMART PTE LTD,I-TEC SUPERMART,1.313289737192,103.885153835516,389456
SE11317V000,"1 GEYLANG SERAI, #01-198, S(402001)",500,EN FROZEN PTE LTD,EN FROZEN ,1.31673634902959,103.898227885294,402001
SE11505P000,"291 JOO CHIAT ROAD, #01-01, S(427543)",501,COLD STORAGE SINGAPORE (1983) PTE LTD,COLD STORAGE,1.30982226508958,103.902232495401,427543
SE11577E000,"612-620 GEYLANG ROAD, S(389551)",502,NTUC FAIRPRICE CO-OPERATIVE LTD,NTUC FAIRPRICE,1.31415001272084,103.888544866086,389551
SE11799C000,"80 TANAH MERAH COAST ROAD CHANGI LODGE 2, S(498820)",503,CP MANAGEMENT SERVICES PRIVATE LIMITED,ULTRAMART,1.32736602101872,104.004244172964,498820
SE11930L000,"112 EAST COAST ROAD, #B1-12 112 KATONG, S(428802)",504,COLD STORAGE SINGAPORE (1983) PTE LTD,market place,1.30508681845447,103.905098915055,428802
SE11947P000,"5 CHANGI BUSINESS PARK CENTRAL 1, #B1-08/11 CHANGI CITY POINT, S(486038)",505,NTUC FAIRPRICE CO-OPERATIVE LTD,FAIRPRICE FINEST,1.33411313029445,103.962792843921,486038
SE11D22K000,"5 CHANGI BUSINESS PARK CENTRAL 1 CHANGI CITY POINT, S(486038)",506,WATER TIGER INVESTMENTS PTE. LTD.,Mmmm!,1.33411313029445,103.962792843921,486038
SE12D97J000,"201 TELOK KURAU ROAD, #01-05, S(423910)",507,THE ALASKA GUYS PTE. LTD.,THE ALASKA GUYS,1.31212247482399,103.911185983674,423910
SE12F88V000,"91 UPPER PAYA LEBAR ROAD, S(534821)",508,SARATHI STORES PTE LTD,SARATHI STORE,1.33748492906751,103.887004163685,534821
SE12G19X000,"8 CHANGI BUSINESS PARK AVENUE 1 UE BIZHUB EAST #01-51 & #02-51, S(486018)",509,NTUC FAIRPRICE CO-OPERATIVE LTD,NTUC FAIRPRICE,1.33483207099199,103.963893694345,486018
SE13135L000,"311 NEW UPPER CHANGI ROAD, #B2-60 BEDOK MALL, S(467360)",510,NTUC FAIRPRICE CO-OPERATIVE LTD,NTUC FAIRPRICE,1.32466897396909,103.92940545649,467360
SE13S71X000,"57 NEW UPPER CHANGI ROAD, #01-1334, S(461057)",511,NTUC FAIRPRICE CO-OPERATIVE LTD,NTUC FAIRPRICE,1.32424554153984,103.941568704132,461057
SE13S89V000,"2 FIRST STREET, #01-05-16 SIGLAP V, S(458278)",512,COLD STORAGE SINGAPORE (1983) PTE LTD,COLD STORAGE,1.31284706410149,103.923788580901,458278
SE13U91V000,"30 EAST COAST ROAD, #01-06-09 VILLAGE HOTEL KATONG, S(428751)",513,NTUC FAIRPRICE CO-OPERATIVE LTD,NTUC FAIRPRICE,1.30385030375719,103.902850370889,428751
SE14377P000,"430 UPPER CHANGI ROAD, #01-47 EAST VILLAGE, S(487048)",514,COLD STORAGE SINGAPORE (1983) PTE LTD,COLD STORAGE,1.3317758150305,103.946201241591,487048
SE14441L000,"6 POTONG PASIR AVENUE 2, #01-01 POTONG PASIR COMMUNITY CENTRE, S(358361)",515,NTUC FAIRPRICE CO-OPERATIVE LTD,NTUC FAIRPRICE,1.33263381545601,103.86715167427,358361
SE14467N000,"1 STADIUM PLACE, #01-29 KALLANG WAVE MALL, S(397628)",516,NTUC FAIRPRICE CO-OPERATIVE LTD,NTUC FAIRPRICE,1.30384327182319,103.872750701661,397628
SE14775X000,"3 SIMEI STREET 6, #05-01 EASTPOINT MALL, S(528833)",517,NTUC FAIRPRICE CO-OPERATIVE LTD,NTUC FAIRPRICE,1.3425864408894,103.953072338954,528833
SE14875L000,"11 TANJONG KATONG ROAD KINEX, S(437157)",518,HAO MART PTE. LTD.,HAO MART,1.31469213499495,103.894480526031,437157
SE14965K000,"342 TANJONG KATONG ROAD, S(437112)",519,MEAT COLLECTIVE SINGAPORE PRIVATE LIMITED,Meat Collective,1.30373387351391,103.89649832916,437112
SE14A83A000,"60 PAYA LEBAR ROAD, #B1-01-05 PAYA LEBAR SQUARE, S(409051)",520,COLD STORAGE SINGAPORE (1983) PTE LTD,COLD STORAGE,1.31867575623015,103.892550598424,409051
SE14C27C000,"1B FIGARO STREET OPERA ESTATE, S(458322)",521,SWISS-BAKE PTE. LTD.,Zac Butchery,1.31574937169634,103.925857001244,458322
SE15043B000,"313 TANJONG KATONG ROAD, S(437096)",522,FOODIE MARKET PLACE PTE. LTD.,FOODIE MARKET PLACE,1.30608655778768,103.896150403005,437096
SE15464L000,"599 GEYLANG ROAD, #01-01, S(389538)",523,ABEDIN TRADING PTE. LTD.,ABEDIN MINIMART,1.31420608181449,103.88669948112,389538
SE16122V000,"401 MACPHERSON ROAD, #02-22/29 MACPHERSON MALL, S(368125)",524,NTUC FAIRPRICE CO-OPERATIVE LTD,NTUC FAIRPRICE,1.33172141574255,103.879427484168,368125
SE16233J000,"18B CIRCUIT ROAD, #01-260 MACPHERSON RESIDENCY, S(372018)",525,SHENG SIONG SUPERMARKET PTE LTD,SHENG SIONG,1.32918105126141,103.888248441219,372018
SE16607K000,"750 CHAI CHEE ROAD, #01-10 VIVA BUSINESS PARK, S(469000)",526,L M MEAT PTE. LTD.,MMMM! CHAI CHEE,1.32384714537839,103.922304551155,469000
SE17082P000,"18 TAI SENG STREET, #B1-13, S(539775)",527,NTUC FAIRPRICE CO-OPERATIVE LTD,NTUC FAIRPRICE,1.33653868091668,103.888762709582,539775
SE17345J000,"31A TANAH MERAH COAST ROAD, #01-01, S(498720)",528,JSJ CORPORATION PTE. LTD.,JSJ MINIMART,1.32207391382315,103.987769801303,498720
SE17401C000,"18 BEDOK SOUTH ROAD, #01-67, S(460018)",529,"TANG KER AN, TIMOTHY",TIM'S FROZEN,1.32062504871279,103.934734222428,460018
SE17481P000,"10 EUNOS ROAD 8, #B1-101 SINGAPORE POST CENTRE, S(408600)",530,NTUC FAIRPRICE CO-OPERATIVE LTD,NTUC FAIRPRICE,1.31893132637472,103.894482925602,408600
SE17500A000,"69 BEDOK SOUTH AVENUE 3, #01-484, S(460069)",531,HAO MART PTE. LTD.,HAO MART,1.31935026360524,103.943632360195,460069
SE18169X000,"11 TANJONG KATONG ROAD, #B1-15 ONE KM, S(437157)",532,SONG FISH DEALER PTE LTD,TASTY FARM,1.31469213499495,103.894480526031,437157
SE18184V000,"448/450 GEYLANG ROAD, S(389407)",533,HAO MART PTE. LTD.,HAO MART,1.31317460794729,103.8836465666,389407
SE18544L000,"330 TANJONG KATONG ROAD, S(437106)",534,JMD RETAIL PTE. LTD.,JMD RETAIL,1.30416447022908,103.896326993346,437106
SE18A90N000,"379 GUILLEMARD ROAD, #01-00, S(399783)",535,PINTO EXPRESS LLP,THAI SUPERMARKET,1.31183407435952,103.887754058191,399783
SE19104A000,"78 AIRPORT BOULEVARD, #B2-205, S(819666)",536,NTUC FAIRPRICE CO-OPERATIVE LTD,FAIRPRICE FINEST,1.36015720495893,103.990090538078,819666
SE19557P000,"10 PAYA LEBAR ROAD, #B2-11, S(409057)",537,SONG FISH DEALER PTE LTD,THE SEAFOOD MARKET PLACE BY SONG FISH,1.31748231058356,103.892832205276,409057
SE19562A000,"10 PAYA LEBAR ROAD, #B2-09, S(409057)",538,NTUC FAIRPRICE CO-OPERATIVE LTD,NTUC FAIRPRICE,1.31748231058356,103.892832205276,409057
SNE19006A000,"602A TAMPINES AVENUE 9, S(521602)",539,SHENG SIONG SUPERMARKET PTE LTD,SHENG SIONG,1.36113645824177,103.937425593435,521602
SNE19019L000,"322 SUMANG WALK MULTI STOREY CAR PARK, S(820322)",540,PRIME SUPERMARKET (1996) PTE LTD,Prime Supermarket,1.41124703512714,103.897501361265,820322
SNE20031P000,"829 TAMPINES STREET 81 TAMPINES GROVE, S(520829)",541,U STARS SUPERMARKET PTE. LTD.,U Stars Supermarket,1.34922419580696,103.934912515373,520829
SNE20033L000,"476 UPPER SERANGOON VIEW HOUGANG CAPEVIEW, S(530476)",542,DANISHA TRADING PTE. LTD.,DANISHA TRADING,1.37743006696183,103.903712864065,530476
SNE20045C000,"39 LOWLAND ROAD LOWLAND GARDEN, S(547441)",543,CLEMENTS FOODCELLAR PTE. LTD.,The Foodcellar,1.3614025283196,103.883163889476,547441
SNW19005L000,"182 WOODLANDS STREET 13 MULTI STOREY CAR PARK, S(730182)",544,SHENG SIONG SUPERMARKET PTE LTD,SHENG SIONG,1.43515895067377,103.776023343198,730182
SNW19010X000,"365 SEMBAWANG CRESCENT, #01-01, S(750365)",545,PRIME SUPERMARKET (1996) PTE LTD,Prime Supermarket,1.44436832551494,103.816263881257,750365
SNW19014K000,"17 DAIRY FARM ROAD THE DAIRY FARM ESTATE, S(679043)",546,EUM PRIVATE LIMITED,ZENMART,1.36529828204937,103.769619552239,679043
SNW19021L000,"202 MARSILING DRIVE, S(730202)",547,SHENG SIONG SUPERMARKET PTE LTD,SHENG SIONG,1.44315121142693,103.775164777049,730202
SNW20023C000,"361 SEMBAWANG CRESCENT MULTI STOREY CAR PARK, S(750361)",548,ANG MO SUPERMARKET PTE LTD,ANY MO SUPERMARKET,1.44631506781839,103.813936813705,750361
SNW20026V000,"6 MANDAI LINK CMM Marketing Management Pte Ltd, S(728652)",549,SHENG SIONG SUPERMARKET PTE LTD,Sheng Siong Training Supermarket,1.40969393759909,103.756910810773,728652
SNW20038L000,"693 WOODLANDS AVENUE 6 MULTI STOREY CAR PARK, S(730693)",550,ANG MO SUPERMARKET PTE LTD,ANY MO SUPERMARKET,1.43808788056635,103.803764959272,730693
SSE19017X000,"447 CHANGI ROAD, S(419875)",551,7MALL.SHOP PTE. LTD.,7mall.shop,1.31915166105681,103.912117831845,419875
SSE20037E000,"693 EAST COAST ROAD FRANKEL ESTATE, S(459058)",552,AL FORNO (EAST COAST) PTE LTD,al forno,1.31190105580921,103.921875613238,459058
SSE20041N000,"184 EAST COAST ROAD, S(428890)",553,SUN RUI,Ever+,1.30676762440589,103.906559248475,428890
SSW19008P000,"18 SUNGEI KADUT STREET 2 SUNGEI KADUT INDUSTRIAL ESTATE, S(729236)",554,S POWER GLOBAL PTE. LTD.,S Power Supermart,1.41260803090908,103.747937640796,729236
SSW19009N000,"129 TUAS VIEW SQUARE, S(637741)",555,DHAKA SUPERMARKET,DHAKA SUPERMARKET,1.30117599336633,103.628177329762,637741
SSW19022V000,"50 JURONG GATEWAY ROAD JEM, S(608549)",556,PAN PACIFIC RETAIL MANAGEMENT (SINGAPORE) PTE. LTD.,DON DON DONKI,1.33320021829132,103.743170428258,608549
SW04097K000,"159 BUKIT BATOK STREET 11, #01-178, S(650159)",557,PRIME SUPERMARKET LIMITED,Prime supermarket,1.34857537953675,103.742708636413,650159
SW04158X000,"108 DEPOT ROAD, #01-01 DEPOT HEIGHTS SHOPPING CENTRE, S(100108)",558,NTUC FAIRPRICE CO-OPERATIVE LTD,NTUC FAIRPRICE,1.28112226852104,103.810031310636,100108
SW05008N000,"638 JURONG WEST STREET 61, #03-01 PIONEER MALL, S(640638)",559,COLD STORAGE SINGAPORE (1983) PTE LTD,GIANT,1.34159108725751,103.697020081587,640638
SW05051J000,"720 CLEMENTI WEST STREET 2, #01-144, S(120720)",560,SHENG SIONG SUPERMARKET PTE LTD,SHENG SIONG,1.30246408847832,103.763750972451,120720
SW06002X000,"19 TOH GUAN ROAD EAST, #01-65, S(608568)",561,TOH GUAN MINI MART PTE. LTD.,TOH GUAN MINIMART,1.3383123486952,103.753550358867,608568
SW06322N000,"395A BUKIT BATOK WEST AVENUE 5, #03-10 MULTI STOREY CAR PARK, S(651395)",562,OH BENG GUAN,-,1.36448974299463,103.751987145985,651395
SW06590A000,"1 HARBOURFRONT WALK, #01-23 VIVOCITY, S(098585)",563,NTUC FAIRPRICE CO-OPERATIVE LTD,FAIRPRICE XTRA,1.26389581240004,103.821589247996,098585
SW06806E000,"17 LORONG KILAT, #01-02 KILAT COURT, S(598139)",564,LOTTE MART PTE. LTD.,LOTTE KOREAN MART,1.34082662400309,103.774213253323,598139
SW07070J000,"284 BUKIT BATOK EAST AVENUE 3, #01-251, S(650284)",565,COLD STORAGE SINGAPORE (1983) PTE LTD,GIANT,1.34669905221409,103.757276700998,650284
SW07209E000,"7 JURONG WEST AVENUE 5, S(649486)",566,SHENG SIONG SUPERMARKET PTE LTD,SHENG SIONG,1.34878489718303,103.703415655017,649486
SW07331C000,"352 CLEMENTI AVENUE 2, #01-91&99, S(120352)",567,SHENG SIONG SUPERMARKET PTE LTD,SHENG SIONG,1.31427265951788,103.771360860916,120352
SW07481A000,"28 DOVER CRESCENT, #01-83 MULTI STOREY CAR PARK, S(130028)",568,NTUC FAIRPRICE CO-OPERATIVE LTD,NTUC FAIRPRICE,1.3047635676742,103.781697199348,130028
SW07E27X000,"30 PENJURU PLACE, #01-06/07, S(608557)",569,KINGSMART PTE. LTD.,kingsmart,1.31619770326353,103.732541771893,608557
SW08807K000,"154 WEST COAST ROAD #B1-19 WEST COAST PLAZA, S(127371)",570,COLD STORAGE SINGAPORE (1983) PTE LTD,coldstorage,1.30374258287197,103.766092882107,127371
SW08821N000,"140 TECK WHYE LANE, #01-351, S(680140)",571,NTUC FAIRPRICE CO-OPERATIVE LTD,NTUC FAIRPRICE,1.38001805825626,103.753148377762,680140
SW08907C000,"555 UPPER JURONG ROAD, #01-02, S(638368)",572,GOWRI'S GLOBAL MARKETING PTE. LTD.,GOWRI'S GLOBAL MARKETING,1.32885582536892,103.677162106135,638368
SW08A55C000,"51 SOON LEE ROAD, #01-51A, S(628088)",573,CHD @ SOON LEE PTE. LTD.,CHD @ SOON LEE,1.33201329508941,103.699073446012,628088
SW08A59X000,"63 JURONG WEST CENTRAL 3 #03-01 JURONG POINT SHOPPING CENTRE, S(648331)",574,NTUC FAIRPRICE CO-OPERATIVE LTD,NTUC FAIRPRICE,1.33931504032005,103.705350996191,648331
SW09032C000,"21 CHOA CHU KANG NORTH 6, #B1-01-07 YEW TEE POINT, S(689578)",575,NTUC FAIRPRICE CO-OPERATIVE LTD,NTUC FAIRPRICE,1.39730190912669,103.746558067665,689578
SW09133X000,"503 JURONG WEST AVENUE 1, #01-847, S(640503)",576,LOCH GROCER PTE. LTD.,LOCH GROCER,1.34995541462242,103.71770480961,640503
SW09285K000,"61 CHOA CHU KANG DRIVE, #01-01 YEW TEE MRT STATION, S(689715)",577,NTUC FAIRPRICE CO-OPERATIVE LTD,FAIRPRICE FINEST,1.39729771118639,103.74735767326,689715
SW09288C000,"14 TECH PARK CRESCENT, #01-02, S(638118)",578,SADIA SUPERMARKET & TRADING (S) PTE. LTD.,SADIA SUPERMARKET & TRADING ,1.3106942813709,103.630190012756,638118
SW09426V000,"2D JALAN PAPAN, #01-04, S(619415)",579,PHANG NEE ENTERPRISE PTE. LTD.,phang nee,1.32128074994759,103.729832580442,619415
SW09752V000,"5 TECH PARK CRESCENT, #01-02, S(638127)",580,LAMIAH ENTERPRISE PTE. LTD.,-,1.31146788847722,103.630340020449,638127
SW10780J000,"32 TUAS VIEW SQUARE, #01-02, S(637778)",581,SHARBESUWARY PTE. LTD.,SHARBESUWARY EXPRESS MART,1.29865806391236,103.62808808355,637778
SW10A16E000,"3155 COMMONWEALTH AVENUE WEST #B1-12/13/14 THE CLEMENTI MALL, S(129588)",582,NTUC FAIRPRICE CO-OPERATIVE LTD,FAIRPRICE FINEST,1.31555354277949,103.764596439304,129588
SW11146X000,"15 JALAN TEPONG, #03-02 (PART OF - LEFT SUB-UNIT), JURONG FOOD HUB, S(619336)",583,YS LOGISTICS (S) PTE. LTD.,YS LOGISTICS (S) ,1.30859345523909,103.722316829054,619336
SW11423N000,"18 TECK WHYE LANE, #01-95, S(680018)",584,SHENG SIONG SUPERMARKET PTE LTD,SHENG SIONG,1.37829768797221,103.754071398872,680018
SW11452C000,"78A TELOK BLANGAH STREET 32, #01-01 MULTI STOREY CAR PARK, S(101078)",585,NTUC FAIRPRICE CO-OPERATIVE LTD,NTUC FAIRPRICE,1.27338751489362,103.808980553946,101078
SW11512N000,"23 PENJURU WALK, #03-81 CASSIA@PENJURU, S(608537)",586,KEK HONG HENG,KOLEE SUPERMARKETS,1.31800211513684,103.731982921138,608537
SW11A26P000,"460 ALEXANDRA ROAD #01-09 & #01-16 PSA BLDG, ALEXANDRA RETAIL CENTRE, S(119963)",587,NTUC FAIRPRICE CO-OPERATIVE LTD,NTUC FAIRPRICE,1.27369890868001,103.801277776077,119963
SW12C98J000,"2 JURONG EAST CENTRAL 1 JCUBE, S(609731)",588,PAN PACIFIC RETAIL MANAGEMENT (SINGAPORE) PTE. LTD.,DON DON DONKI,1.33323785085838,103.740191321438,609731
SW12F58E000,"352 CLEMENTI AVENUE 2, #01-141 CLEMENTI AVENUE 2 SHOPPING CENTRE, S(120352)",589,NTUC FAIRPRICE CO-OPERATIVE LTD,NTUC FAIRPRICE,1.31427265951788,103.771360860916,120352
SW12G70J000,"101 CLEMENTI ROAD, #01-01 KENT VALE ESTATE, NUS, S(129787)",590,COLD STORAGE SINGAPORE (1983) PTE LTD,COLD STORAGE,1.30176049506481,103.769371057337,129787
SW12G71E000,"1 COVE AVENUE #02-07/08/09/10 SENTOSA COVE ARRIVAL PLAZA, S(098537)",591,COLD STORAGE SINGAPORE (1983) PTE LTD,COLD STORAGE,1.2471504050601,103.839555011268,098537
SW12H20A000,"498 JURONG WEST STREET 41 #01-434/436/438, S(640498)",592,NTUC FAIRPRICE CO-OPERATIVE LTD,NTUC FAIRPRICE,1.34833335760515,103.724307319237,640498
SW12J94X000,"1 VISTA EXCHANGE GREEN, #B1-28 THE STAR VISTA, S(138617)",593,TANESEI TRADING PTE. LTD.,J MART,1.30688972960252,103.788506619352,138617
SW12J97L000,"1 VISTA EXCHANGE GREEN #B1-35/36 AND 02 THE STAR VISTA, S(138617)",594,COLD STORAGE SINGAPORE (1983) PTE LTD,COLD STORAGE,1.30688972960252,103.788506619352,138617
SW12L48X000,"12 KRANJI ROAD 1ST STOREY, LODGE 1 WORKERS' DORMITORY, S(739522)",595,AJMAL TRADE MART PTE. LTD.,AJMAL TRADE MART,1.43069359839388,103.759237290643,739522
SW12M64L000,"25 GHIM MOH LINK, #01-11, S(270025)",596,SHENG SIONG SUPERMARKET PTE LTD,SHENG SIONG,1.3081474688469,103.786255228477,270025
SW12M67E000,"420A CLEMENTI AVENUE 1, #01-01, S(121420)",597,SHENG SIONG SUPERMARKET PTE LTD,SHENG SIONG,1.30979102116855,103.768657661297,121420
SW12N25V000,"31 OCEAN WAY, #01-26/27 QUAYSIDE ISLE, SENTOSA, S(098375)",598,COLD STORAGE SINGAPORE (1983) PTE LTD,COLD STORAGE,1.24775861469621,103.841921088698,098375
SW12O05A000,"502 WEST COAST DRIVE, #01-41, S(120502)",599,NTUC FAIRPRICE CO-OPERATIVE LTD,NTUC FAIRPRICE,1.31188595916451,103.75908093731,120502
SW13245V000,"1 LOWER KENT RIDGE ROAD, #02-16 ONE@KENTRIDGE, S(119082)",600,NTUC FAIRPRICE CO-OPERATIVE LTD,NTUC FAIRPRICE,1.29277431990535,103.784084011452,119082
SW13368A000,"154 WEST COAST ROAD, #B1-14 WEST COAST PLAZA, S(127371)",601,L M MEAT PTE. LTD.,Mmmm ! WEST COAST PLAZA,1.30374258287197,103.766092882107,127371
SW13Q24X000,"280 BUKIT BATOK EAST AVENUE 3, #01-315, S(650280)",602,NTUC FAIRPRICE CO-OPERATIVE LTD,NTUC FAIRPRICE,1.34770147739311,103.757044584552,650280
SW13T12J000,"50 JURONG GATEWAY ROAD, #B1-21/22 JEM, S(608549)",603,NTUC FAIRPRICE CO-OPERATIVE LTD,FAIRPRICE XTRA,1.33320021829132,103.743170428258,608549
SW13W88P000,"3 GATEWAY DRIVE, #B2-01 WESTGATE, S(608532)",604,ISETAN (SINGAPORE) LIMITED,ISETAN SUPERMARKET,1.33428313049536,103.742870105512,608532
SW14017K000,"18 TOH GUAN ROAD EAST, #02-02 BLK 28, WESTLITE DORMITORY (TOH GUAN), S(608596)",605,SHAFEN SUPERMARKET & TRADING (S) PTE. LTD.,SHAFEN SUPERMARKET & TRADING ,1.33641798183711,103.751807381961,608596
SW14484J000,"48 TOH GUAN ROAD EAST ENTERPRISE HUB, S(608586)",606,SRI MURUGAN TRADING PTE. LTD.,SRI MURUGAN TRADING,1.33683097525786,103.754341430783,608586
SW14542A000,"4 HILLVIEW RISE, #02-07 HILLV2, S(667979)",607,COLD STORAGE SINGAPORE (1983) PTE LTD,HILLVIEW MARKET PLACE,1.36355095770679,103.76423610633,667979
SW14633X000,"2 BUKIT BATOK WEST AVENUE 7, #01-10 HomeTeamNS BUKIT BATOK CLUBHOUSE, S(659003)",608,NTUC FAIRPRICE CO-OPERATIVE LTD,NTUC FAIRPRICE,1.36587481730827,103.750225305199,659003
SW14718K000,"70 TUAS SOUTH AVENUE 1 TUAS VIEW DORMITORY, S(637285)",609,AJMAL SUPER MART PTE. LTD.,AJMAL SUPER MART,1.312703972078,103.626129413176,637285
SW14817E000,"27 PENJURU WALK, #01-24 PENJURU RECREATION CENTRE, S(608538)",610,SHENG SIONG SUPERMARKET PTE LTD,SHENG SIONG,1.31865728379443,103.733152140767,608538
SW14951X000,"1 JOO KOON CIRCLE, #03-21 FAIRPRICE HUB, S(629117)",611,NTUC FAIRPRICE CO-OPERATIVE LTD,WAREHOUSE CLUB,1.32539180665075,103.678392265337,629117
SW14A33P000,"27 PENJURU WALK, #01-08/09 PENJURU RECREATION CENTRE, S(608538)",612,VINAYAK TRADERS PTE. LTD.,VINAYAK TRADERS,1.31865728379443,103.733152140767,608538
SW14A98C000,"27 PENJURU WALK, #01-15 PENJURU RECREATION CENTRE, S(608538)",613,GURU'S MARKETING PTE. LTD.,Gurus Supermarket,1.31865728379443,103.733152140767,608538
SW14B28C000,"115 TUAS VIEW WALK 1 (PART OF- FRONT), FIRST STOREY, WESTLINK TECHPARK, S(637734)",614,SHINVA AGRO FOODS PTE. LTD.,SHINVA AGRO FOODS,1.30091123508276,103.627789990003,637734
SW15051V000,"27 PENJURU WALK, #01-06/07 PENJURU RECREATION CENTRE, S(608538)",615,ARCHANA PROVISION STORES PTE. LTD.,archana,1.31865728379443,103.733152140767,608538
SW15681P000,"21 TUAS VIEW SQUARE (PART OF), S(637640)",616,NPS IMPEX PTE. LTD.,NSP SUPER MART,1.29891712474996,103.627532390173,637640
SW15796X000,"533 CHOA CHU KANG STREET 51, #01-11 LIMBANG SHOPPING CENTRE (HDB), S(680533)",617,NTUC FAIRPRICE CO-OPERATIVE LTD,NTUC FAIRPRICE,1.3920738867617,103.743099573442,680533
SW15968N000,"37 TEBAN GARDENS ROAD #01-304/305/306, S(600037)",618,NTUC FAIRPRICE CO-OPERATIVE LTD,NTUC FAIRPRICE,1.32053143645806,103.742652199249,600037
SW15D03B000,"50 NANYANG AVENUE NORTH SPINE , NTU, S(639798)",619,PRIME SUPERMARKET (1996) PTE LTD,Prime Supermarket,1.34421841586272,103.680152218583,639798
SW16126J000,"6 TUAS SOUTH STREET 15 CDPL (TUAS) DORMITORY, S(636906)",620,TUAS SOUTH MINIMART PTE. LTD.,TUAS SOUTH MINIMART,1.2723601780185,103.637033572628,636906
SW16224E000,"3 TUAS SOUTH STREET 12, #01-16 TUAS SOUTH DORMITORY, S(636947)",621,NAWAS GLOBAL PTE. LTD.,NAWAS GLOBAL,1.27164521611331,103.63361127365,636947
SW16814X000,"1 JALAN PAPAN, #01-33, S(619392)",623,VINAYAK TRADERS PTE. LTD.,VINAYAK TRADERS,1.32087635946694,103.727545977964,619392
SW16815P000,"500 OLD CHOA CHU KANG ROAD, #01-02, S(698928)",624,PHAN NEE INVESTMENTS (S) PTE. LTD.,-,1.37376143663764,103.721557394479,698928
SW16856V000,"1 JALAN PAPAN, #01-29, S(619392)",625,ARCHANA SUPERMARKET PTE. LTD.,ARCHANA SUPERMARKET,1.32087635946694,103.727545977964,619392
SW16901A000,"12 TUAS SOUTH STREET 13, #01-20/21, S(636937)",626,SADIA SUPERMARKET & TRADING (S) PTE. LTD.,SADIA SUPERMARKET & TRADING ,1.27019585421212,103.634479625194,636937
SW16921N000,"1 JALAN PAPAN, #01-35, S(619392)",627,CHENNAI TRADING & SUPERMART PTE. LTD.,CHENNAI TRADING & SUPERMARKET,1.32087635946694,103.727545977964,619392
SW16942C000,"12 TUAS SOUTH STREET 13, #01-18/19, S(636937)",628,POPULAR SUPERMARKET PTE. LTD.,POPULAR SUPERMARKET,1.27019585421212,103.634479625194,636937
SW16B52K000,"5 JALAN PAPAN, #01-32 ASPRI-WESTLITE PAPAN, S(619396)",629,AJMAL  TRADING GROUP PTE. LTD.,AJMAL TRADING GROUP,1.32213826794398,103.727421300389,619396
SW16B85N000,"69R TUAS SOUTH AVENUE 1, #01-02, S(639926)",630,KAVI TRADERS PTE. LTD.,KAVI MINIMART,1.31337258753746,103.6279253363,639926
SW16D52V000,"810 CHOA CHU KANG AVENUE 7, #01-01 MULTI STOREY CAR PARK, S(680810)",631,U STARS PTE. LTD.,U STARS SUPERMARKET,1.3740546176425,103.746160942106,680810
SW16D83E000,"249 JURONG EAST STREET 24, #01-106, S(600249)",632,NTUC FAIRPRICE CO-OPERATIVE LTD,NTUC FAIRPRICE,1.34256242291848,103.739259690369,600249
SW16E98J000,"500 OLD CHOA CHU KANG ROAD, #01-21, S(698924)",633,PHAN NEE INVESTMENTS (S) PTE LTD,PHANNEE SUPERMART,1.37760471899348,103.718533645365,698924
SW16H70N000,"69 TUAS SOUTH AVENUE 1, #01-02 SEATOWN INDUSTRIAL CENTRE, S(637589)",634,MALAR MARKETING PTE. LTD.,MALAR MARKETING,1.31335809026255,103.627436989653,637589
SW17592A000,"50 JURONG GATEWAY ROAD, #B1-43 JEM, S(608549)",635,SONG FISH DEALER PTE LTD,THE SEAFOOD MARKET PLACE BY SONG FISH,1.33320021829132,103.743170428258,608549
SW17728C000,"817 KEAT HONG LINK, #01-14 MULTI STOREY CAR PARK, S(680817)",636,U STARS PTE. LTD.,U STARS MEGAMART,1.37754385007462,103.749700036701,680817
SW17E56V000,"1 FUSIONOPOLIS WAY, #B2-03 CONNEXIS, S(138632)",637,COLD STORAGE SINGAPORE (1983) PTE LTD,COLD STORAGE,1.29951528532019,103.787639846851,138632
SW18581V000,"180 DEPOT ROAD, #01-04 INTERLACE, THE, S(109684)",638,THE QUALITYMART DEPOT PTE. LTD.,THE QUALITYMART DEPOT,1.28198401796351,103.803052971713,109684
SW18715E000,"13 YUK TONG AVENUE CHUN TIN COURT, S(596318)",639,SEOUL BUTCHERY PTE. LTD.,SEOUL BUTCHERY,1.34207496392367,103.774632794309,596318
SW18A30L000,"440 BUKIT BATOK WEST AVENUE 8, #01-10 MULTI STOREY CAR PARK, S(650440)",640,SHENG SIONG SUPERMARKET PTE LTD,SHENG SIONG,1.35572308109486,103.739303105372,650440
SW18A40J000,"35 STUDENTS WALK NTU CANTEEN 2, S(639548)",641,COLD STORAGE SINGAPORE (1983) PTE LTD,GIANT EXPRESS,1.34842266576961,103.685434201207,639548
SW18B79P000,"9 TRACTOR ROAD, S(627970)",642,MURUGAN TRADERS PTE LTD,-,1.32447647411575,103.705852113344,627970
SW18F69X000,"451 BUKIT BATOK WEST AVENUE 6, #01-10 MULTI STOREY CAR PARK, S(650451)",643,SHENG SIONG SUPERMARKET PTE LTD,SHENG SIONG,1.35303824882883,103.743948447541,650451
SW18G66X000,"34 BOON LEAT TERRACE (PART OF), S(119866)",644,HONESTBEE PTE. LTD.,HABITAT BY HONESTBEE,1.27604518583221,103.797187337697,119866
SW19707V000,"14 TUAS AVENUE 1, #01-01 JTC SPACE @ TUAS, S(639499)",645,BALU SUPER MARKET PTE. LTD.,BALU SUPERMARKET,1.32156874356655,103.660993360337,639499
SW19869J000,"292 BUKIT BATOK EAST AVENUE 6, #01-02 MULTI STOREY CAR PARK, S(650292)",646,SHENG SIONG SUPERMARKET PTE LTD,SHENG SIONG,1.34449810500079,103.755375174334,650292
SW19934B000,"1 HARBOURFRONT WALK, #B2-23A VIVO CITY, S(098585)",647,SONG FISH DEALER PTE LTD,THE SEAFOOD MARKET PLACE BY SONG FISH,1.26389581240004,103.821589247996,098585
SW19A15B000,"8 TECH PARK CRESCENT, #01-00, S(638124)",648,NIHI PTE. LTD.,NIHI MINI MART,1.31097333406367,103.629405094456,638124
SW19G50C000,"40 TUAS VIEW SQUARE, #01-03 LANDBASE INDUSTRIAL BUILDING, S(637779)",649,LAMIAH ENTERPRISE PTE. LTD.,LAMIAH MINIMART,1.3004756660875,103.628812048159,637779
W02065N000,"101 THOMSON ROAD, #B1-52 UNITED SQUARE, S(307591)",650,COLD STORAGE SINGAPORE (1983) PTE LTD,COLD STORAGE,1.31717838140911,103.843773665257,307591
W02066L000,"211 HOLLAND AVENUE, #01-05 HOLLAND ROAD SHOPPING CENTRE, S(278967)",651,COLD STORAGE SINGAPORE (1983) PTE LTD,COLD STORAGE,1.31025541884853,103.795350439947,278967
W02068J000,"1 KIM SENG PROMENADE, #B1-18/19 GREAT WORLD CITY, S(237994)",652,COLD STORAGE SINGAPORE (1983) PTE LTD,COLD STORAGE,1.2931549290701,103.831928020443,237994
W02070V000,"290 ORCHARD ROAD, #B1-14/15 THE PARAGON, S(238859)",653,COLD STORAGE SINGAPORE (1983) PTE LTD,COLD STORAGE,1.30371084737898,103.83526664484,238859
W02071X000,"391A ORCHARD ROAD, #B2-01 NGEE ANN CITY TOWER A, S(238873)",654,COLD STORAGE SINGAPORE (1983) PTE LTD,COLD STORAGE,1.30242417189411,103.834676124723,238873
W02072P000,"302 TIONG BAHRU ROAD, #B1-01 TIONG BAHRU PLAZA, S(168732)",655,NTUC FAIRPRICE CO-OPERATIVE LTD,NTUC FAIRPRICE,1.28647119992725,103.827158267789,168732
W02073N000,"163 TANGLIN ROAD, #B1-02/03 TANGLIN MALL, S(247933)",656,COLD STORAGE SINGAPORE (1983) PTE LTD,COLD STORAGE,1.30485342129478,103.823883490852,247933
W02074L000,"238 THOMSON ROAD, #01-29 NOVENA SQUARE, S(307683)",657,COLD STORAGE SINGAPORE (1983) PTE LTD,COLD STORAGE,1.31983049912881,103.843976528625,307683
W02075K000,"230 VICTORIA STREET, #B1-16 BUGIS JUNCTION, S(188024)",658,COLD STORAGE SINGAPORE (1983) PTE LTD,COLD STORAGE,1.30011789343093,103.856191571652,188024
W02076J000,"5 BANDA STREET, #03-92, S(050005)",659,HONG HENG SENG,fish supplier,1.28119737026913,103.843437320613,050005
W02078C000,"350 ORCHARD ROAD, #B1-00 SHAW HOUSE, S(238868)",660,ISETAN (SINGAPORE) LIMITED,ISETAN SUPERMARKET,1.30573060708011,103.831531920982,238868
W02080P000,"252 NORTH BRIDGE ROAD, #B1-01 RAFFLES CITY SHOPPING CENTRE, S(179103)",661,COLD STORAGE SINGAPORE (1983) PTE LTD,Market Place,1.29407644483073,103.853331827088,179103
W02081N000,"5001 BEACH ROAD, #02-64 GOLDEN MILE COMPLEX, S(199588)",662,LOH NYEN YIU,thai supermarket,1.30285776289789,103.865284424819,199588
W02083K000,"166 BUKIT MERAH CENTRAL, #01-3527 02-3531 BUKIT MERAH AREA OFFICE, S(150166)",663,NTUC FAIRPRICE CO-OPERATIVE LTD,NTUC FAIRPRICE,1.28309262574973,103.817667202598,150166
W02086C000,"50 HAVELOCK ROAD, #01-755, S(160050)",664,NTUC FAIRPRICE CO-OPERATIVE LTD,NTUC FAIRPRICE,1.28977813992267,103.826793758887,160050
W02088A000,"68 ORCHARD ROAD, #B2-15/16 PLAZA SINGAPURA, S(238839)",665,COLD STORAGE SINGAPORE (1983) PTE LTD,COLD STORAGE,1.30082071769235,103.845067272666,238839
W02092J000,"5 TANJONG PAGAR PLAZA, #01-01, S(081005)",666,NTUC FAIRPRICE CO-OPERATIVE LTD,NTUC FAIRPRICE,1.27624052001347,103.843006115698,081005
W02096A000,"81 CLEMENCEAU AVENUE, #02-18, S(239917)",667,COLD STORAGE SINGAPORE (1983) PTE LTD,COLD STORAGE,1.2921646613958,103.842601482192,239917
W02100V000,"109 BUKIT PURMEI ROAD, #01-155, S(090109)",668,NG CHAI SENG,-,1.27392939929265,103.825310761145,090109
W02140C000,"200 TURF CLUB ROAD THE GRANDSTAND, S(287994)",669,HAO MART PTE. LTD.,HAO MART,1.33879673523931,103.793256122847,287994
W02239E000,"131 KILLINEY ROAD, #01-01,02 ORCHARD GRAND COURT, S(239571)",670,NTUC FAIRPRICE CO-OPERATIVE LTD,NTUC FAIRPRICE,1.29727531417916,103.838533924757,239571
W02332N000,"52 CHIN SWEE ROAD, #01-25, S(160052)",671,SHENG SIONG SUPERMARKET PTE LTD,SHENG SIONG,1.28708278284998,103.841580109275,160052
W02430L000,"501 BUKIT TIMAH ROAD, #01-05B (PART OF) CLUNY COURT, S(259760)",672,THE FISHWIVES PTE. LTD.,THE FISHWIVES,1.32257316934913,103.814245542255,259760
W03142N000,"147 SYED ALWI ROAD, S(207706)",673,MUSTAFA HOLDINGS PTE LTD,Mustafa Singapore,1.30975299910627,103.855701473372,207706
W03223N000,"780 YISHUN RING ROAD, #01-3546, S(760780)",674,KAI SOON SUPERMARKET PTE. LTD.,KAI SOON SUPERMARKET,1.42213865295029,103.832882657874,760780
W70029L000,"170 STIRLING ROAD, #01-1147, S(140170)",675,NTUC FAIRPRICE CO-OPERATIVE LTD,NTUC FAIRPRICE,1.29090918077067,103.803107626115,140170
W72014K000,"86 REDHILL CLOSE, #01-610, S(150086)",676,COLD STORAGE SINGAPORE (1983) PTE LTD,GIANT,1.2869200622963,103.818673592235,150086
W74072X000,"8 TELOK BLANGAH CRESCENT, #01-171, S(090008)",677,COLD STORAGE SINGAPORE (1983) PTE LTD,GIANT,1.27779539068994,103.819341303524,090008
W89166E000,"176 ORCHARD ROAD, #B1-09/11 CENTREPOINT SHOPPING COMPLEX, S(238843)",678,COLD STORAGE SINGAPORE (1983) PTE LTD,COLD STORAGE,1.30151446722773,103.840054426935,238843
W90084A000,"133 NEW BRIDGE ROAD, #B1-01 CHINATOWN POINT, S(059413)",679,NTUC FAIRPRICE CO-OPERATIVE LTD,NTUC FAIRPRICE,1.28533894878838,103.845015574621,059413
